SeedCode,LA Name,Centre Type,School Name,Address 1,Address 2,Address 3,Post code,Secondary,Secondary roll,Secondary
6003834,Orkney Islands,Local Authority,Stronsay Junior High School,Stronsay,Orkney,-,KW17 2AE,Secondary,11,5
6003036,Orkney Islands,Local Authority,Westray Junior High School,Westray,Orkney,-,KW17 2DH,Secondary,16,5
6003230,Orkney Islands,Local Authority,Sanday Community School,Sanday,Orkney,-,KW17 2AY,Secondary,21,5
6103138,Shetland Islands,Local Authority,Baltasound Junior High School,Baltasound,Unst,SHETLAND,ZE2 9DY,Secondary,22,6
8110131,Argyll & Bute,Local Authority,Tiree High School,Isle Of Tiree,Argyll,-,PA77 6XA,Secondary,26,11
6103731,Shetland Islands,Local Authority,Mid Yell Junior High School,Mid Yell,Shetland,-,ZE2 9BN,Secondary,37,9
6104134,Shetland Islands,Local Authority,Whalsay School,Symbister,Whalsay,SHETLAND,ZE2 9AQ,Secondary,43,10
5142431,Highland,Local Authority,Kilchuimen Academy,Station Road,Fort Augustus,INVERNESS-SHIRE,PH32 4DL,Secondary,46,14
5153239,Highland,Local Authority,Kinlochbervie High School,Manse Road,Kinlochbervie,-,IV27 4RG,Secondary,47,10
5918332,Dumfries & Galloway,Local Authority,Dalry School,Kirkland Street,Dalry,CASTLE DOUGLAS,DG7 3UX,Secondary,52,10
6203132,Eilean Siar,Local Authority,Castlebay School,Castlebay,Barra,-,HS9 5XD,Secondary,54,15
6103030,Shetland Islands,Local Authority,Aith Junior High School,Aith,Shetland,-,ZE2 9NB,Secondary,64,10
5110432,Highland,Local Authority,Farr High School,Bettyhill,By Thurso,-,KW14 7SP,Secondary,72,13
8110530,Argyll & Bute,Local Authority,Tarbert Academy,School Road,Tarbert,ARGYLL,PA29 6TE,Secondary,92,17
5130239,Highland,Local Authority,Ardnamurchan High School,Drumnatorran,Strontian,ACHARCLE,PH36 4JA,Secondary,99,16
6204139,Eilean Siar,Local Authority,Sir E Scott School,Tarbert,Isle of Harris,WESTERN ISLES,HS3 3BG,Secondary,106,20
5135834,Highland,Local Authority,Mallaig High School,Mallaig,-,-,PH41 4RG,Secondary,126,16
5531934,Edinburgh City,Local Authority,Castlebrae Community High School,2a Greendykes Road,Edinburgh,-,EH16 4DP,Secondary,127,24
5119030,Highland,Local Authority,Gairloch High School,Achtercairn,Gairloch,-,IV21 2BP,Secondary,128,19
5351332,Perth & Kinross,Local Authority,Pitlochry High School,East Moulin Road,Pitlochry,-,PH16 5ET,Secondary,135,20
6103839,Shetland Islands,Local Authority,Sandwick Junior High School,Sandwick,Shetland,-,ZE2 9HH,Secondary,137,16
8110638,Argyll & Bute,Local Authority,Tobermory High School,Tobermory,Isle Of Mull,ARGYLL,PA75 6PB,Secondary,138,20
5135532,Highland,Local Authority,Kinlochleven High School,Riverside Road,Kinlochleven,ARGYLL,PH50 4QH,Secondary,141,17
6103332,Shetland Islands,Local Authority,Brae High School,Brae,Shetland,-,ZE2 9QG,Secondary,154,25
5948533,Dumfries & Galloway,Local Authority,Langholm Academy,Langholm,Dumfriesshire,-,DG13 0BL,Secondary,209,22
5109434,Highland,Local Authority,Dornoch Academy,Evelix Road,Dornoch,SUTHERLAND,IV25 3HR,Secondary,222,23
5142539,Highland,Local Authority,Glen Urquhart High School,Pitkerrald Road,Drumnadrochit,-,IV63 6UG,Secondary,222,23
8109931,Argyll & Bute,Local Authority,Islay High School,Bowmore,Isle Of Islay,ARGYLL,PA43 7LS,Secondary,222,24
5119936,Highland,Local Authority,Ullapool High School,Quay Street,Ullapool,-,IV26 2UN,Secondary,227,27
8200831,North Ayrshire,Local Authority,Arran High School,Lamlash,-,ISLE OF ARRAN,KA27 8NG,Secondary,237,25
5109531,Highland,Local Authority,Golspie High School,Golspie,-,-,KW10 6RF,Secondary,242,27
5939631,Dumfries & Galloway,Local Authority,Sanquhar Academy,Broomfield,Sanquhar,-,DG4 6JN,Secondary,247,30
6233430,Eilean Siar,Local Authority,Sgoil Lionacleit,Liniclate,Benbecula,-,HS7 5PJ,Secondary,251,35
5948738,Dumfries & Galloway,Local Authority,Moffat Academy,Jeff Brown Drive,Moffat,-,DG10 9QL,Secondary,259,27
5533937,Edinburgh City,Local Authority,Wester Hailes Education Centre,5 Murrayburn Drive,Edinburgh,-,EH14 2SU,Secondary,273,32
5123437,Highland,Local Authority,Plockton High School,Plockton,Ross-shire,-,IV52 8TF,Secondary,283,28
8432627,Glasgow City,Local Authority,Glasgow Gaelic School,147 Berkeley Street,-,GLASGOW,G3 7HP,Secondary,286,34
8130434,Argyll & Bute,Local Authority,Rothesay Academy,Rothesay Joint Campus,High Street,ROTHESAY,PA20 9JH,Secondary,288,29
8244138,East Ayrshire,Local Authority,Doon Academy,Ayr Road,Dalmellington,-,KA6 7SJ,Secondary,294,37
5939534,Dumfries & Galloway,Local Authority,Maxwelltown High School,Lochside Road,Dumfries,-,DG2 0EL,Secondary,309,39
5150132,Highland,Local Authority,Grantown Grammar School,Cromdale Road,Grantown-on-Spey,-,PH26 3HU,Secondary,329,32
5532531,Edinburgh City,Local Authority,Drummond Community High School,41 Bellevue Place,Edinburgh,-,EH7 4BS,Secondary,341,36
5632730,Scottish Borders,Local Authority,Jedburgh Grammar School,High Street,Jedburgh,ROXBURGHSHIRE,TD8 6DQ,Secondary,343,31
6003532,Orkney Islands,Local Authority,Stromness Academy,Stromness,Orkney,-,KW16 3JS,Secondary,350,37
5119634,Highland,Local Authority,Invergordon Academy,Academy Road,Invergordon,-,IV18 0LD,Secondary,352,30
8110034,Argyll & Bute,Local Authority,Campbeltown Grammar School,Hutcheon Road,Campbeltown,ARGYLL,PA28 6JS,Secondary,370,39
8517231,North Lanarkshire,Local Authority,Calderhead High School,Dyfrig Street,Shotts,-,ML7 4DH,Secondary,371,36
5918138,Dumfries & Galloway,Local Authority,Dalbeattie High School,Haugh Road,Dalbeattie,-,DG5 4AR,Secondary,372,34
8438331,Glasgow City,Local Authority,St Margaret Mary's Secondary School,9 Birgidale Road,-,GLASGOW,G45 9NJ,Secondary,382,34
8459932,Glasgow City,Local Authority,Drumchapel High School,45 Cally Avenue,-,GLASGOW,G15 7SQ,Secondary,385,47
5146038,Highland,Local Authority,Kingussie High School,Ruthven Road,Kingussie,-,PH21 1ES,Secondary,387,38
8435731,Glasgow City,Local Authority,Lochend Community High School,20 Cairnbrook Road,-,GLASGOW,G34 0NZ,Secondary,387,38
5619831,Scottish Borders,Local Authority,Selkirk High School,Hillside Terrace,Selkirk,-,TD7 4EW,Secondary,391,34
5208831,Moray,Local Authority,Keith Grammar School,School Road,Keith,MORAY,AB55 5GS,Secondary,403,36
5918731,Dumfries & Galloway,Local Authority,Kirkcudbright Academy,St Mary's Wynd,Kirkcudbright,-,DG6 4JN,Secondary,404,38
8434034,Glasgow City,Local Authority,Castlemilk High School,223 Castlemilk Drive,-,GLASGOW,G45 9JY,Secondary,405,38
5647436,Scottish Borders,Local Authority,Eyemouth High School,Gunsgreenhill,Eyemouth,BERWICKSHIRE,TD14 5LZ,Secondary,411,34
8235538,South Ayrshire,Local Authority,Ayr Academy,7 Fort Street,Ayr,-,KA7 1HX,Secondary,412,42
5208939,Moray,Local Authority,Speyside High School,Mary Avenue,Aberlour,MORAY,AB38 9QU,Secondary,413,35
5120136,Highland,Local Authority,Alness Academy,Alness,-,-,IV17 0UY,Secondary,417,38
8433836,Glasgow City,Local Authority,Govan High School,12 Ardnish Street,-,GLASGOW,G51 4NB,Secondary,417,51
8628432,Renfrewshire,Local Authority,Linwood High School,Stirling Drive,Linwood,-,PA3 3NB,Secondary,420,41
5202930,Moray,Local Authority,Milne's High School,West Street,Fochabers,MORAY,IV32 7DJ,Secondary,421,36
8439532,Glasgow City,Local Authority,Whitehill Secondary School,280 Onslow Drive,Dennistoun,GLASGOW,G31 2QF,Secondary,423,44
5407338,Fife,Local Authority,Viewforth High School,Windmill Community Campus,Windmill Road,KIRKCALDY FIFE,KY1 3AL,Secondary,430,41
5244838,Aberdeen City,Local Authority,Torry Academy,Tullos Circle,Aberdeen,-,AB11 8HD,Secondary,437,48
5119839,Highland,Local Authority,Tain Royal Academy,Scotsburn Road,Tain,-,IV19 1PS,Secondary,443,37
5349834,Perth & Kinross,Local Authority,Breadalbane Academy,Breadalbane Community Campus,Crieff Road,ABERFELDY,PH15 2FJ,Secondary,453,46
8111030,Argyll & Bute,Local Authority,Lochgilphead High School,Lochgilphead Joint Campus,Kilmory,LOCHGILPHEAD,PA31 8AA,Secondary,465,40
5532434,Edinburgh City,Local Authority,Craigroyston Community High School,67 Pennywell Road,Edinburgh,-,EH4 4NL,Secondary,473,46
8645531,Inverclyde,Local Authority,Port Glasgow High School,Port Glasgow Comunity Campus,Kilmacolm Road,PORT GLASGOW,PA14 6PP,Secondary,478,43
5243335,Aberdeen City,Local Authority,Dyce Academy,Riverview Drive,Dyce,ABERDEEN,AB21 7NF,Secondary,488,43
5307236,Angus,Local Authority,Brechin High School,Duke Street,Brechin,-,DD9 6LB,Secondary,489,45
8236534,South Ayrshire,Local Authority,Girvan Academy,62 The Avenue,Girvan,-,KA26 9DW,Secondary,489,51
5142636,Highland,Local Authority,Inverness High School,Montague Row,Inverness,-,IV3 5DZ,Secondary,490,45
5350034,Perth & Kinross,Local Authority,The Community School of Auchterarder,New School Lane,Auchterarder,PERTHSHIRE,PH3 1BL,Secondary,495,45
8236739,South Ayrshire,Local Authority,Carrick Academy,72/74 Kirkoswald Road,Maybole,-,KA19 8BP,Secondary,500,45
5534631,Edinburgh City,Local Authority,Tynecastle High School,17-19 McLeod Street,Edinburgh,-,EH11 2NJ,Secondary,507,43
8223939,East Ayrshire,Local Authority,Kilmarnock Academy,Elmbank Drive,Kilmarnock,-,KA1 3BS,Secondary,515,41
8438730,Glasgow City,Local Authority,St Roch's Secondary School,25 Rhymer Street,-,GLASGOW,G21 2NF,Secondary,517,53
5918030,Dumfries & Galloway,Local Authority,Castle Douglas High School,Dunmuir Road,Castle Douglas,-,DG7 1LQ,Secondary,519,43
5533430,Edinburgh City,Local Authority,Liberton High School,328 Gilmerton Road,Edinburgh,-,EH17 7PT,Secondary,520,45
5339731,Dundee City,Local Authority,Braeview Academy,Berwick Drive,Dundee,-,DD4 0NL,Secondary,527,56
8645639,Inverclyde,Local Authority,St Stephen's High School,Port Glasgow Community Campus,Kilmacolm Road,PORT GLASGOW,PA14 6PP,Secondary,527,45
5128234,Highland,Local Authority,Portree High School,Viewfield Road,Portree,ISLE OF SKYE,IV51 9ET,Secondary,529,47
8215138,North Ayrshire,Local Authority,Irvine Royal Academy,Kilwinning Road,-,IRVINE,KA12 8SJ,Secondary,540,47
5203139,Moray,Local Authority,Lossiemouth High School,Coulardbank Road,Lossiemouth,MORAY,IV31 6JU,Secondary,543,47
8437130,Glasgow City,Local Authority,Smithycroft Secondary School,282 Smithycroft Road,-,GLASGOW,G33 2QU,Secondary,544,48
5243831,Aberdeen City,Local Authority,Kincorth Academy,Kincorth Circle,Kincorth,ABERDEEN,AB12 5NL,Secondary,548,44
8337632,East Dunbartonshire,Local Authority,Kirkintilloch High School,Waterside Road,Kirkintilloch,-,G66 3PA,Secondary,553,57
5546834,Midlothian,Local Authority,Penicuik High School,39a Carlops Road,Penicuik,-,EH26 9EP,Secondary,554,48
5939739,Dumfries & Galloway,Local Authority,Wallace Hall Academy,Station Road,Thornhill,DUMFRIESSHIRE,DG3 5DS,Secondary,554,45
8432236,Glasgow City,Local Authority,Cleveden Secondary School,42 Cleveden Road,-,GLASGOW,G12 0JW,Secondary,560,50
8304130,West Dunbartonshire,Local Authority,Dumbarton Academy,Crosslet Road,-,DUMBARTON,G82 2AJ,Secondary,565,56
8358532,North Lanarkshire,Local Authority,Kilsyth Academy,Balmalloch,Kilsyth,GLASGOW,G65 9NF,Secondary,566,44
8236232,South Ayrshire,Local Authority,Queen Margaret Academy,33A Dalmellington Road,Ayr,-,KA7 3TL,Secondary,568,55
8627630,East Renfrewshire,Local Authority,Barrhead High School,Aurs Road,Barrhead,-,G78 2SJ,Secondary,569,57
5546230,Midlothian,Local Authority,St David's RC High School,1 Cousland Road,Dalkeith,-,EH22 2PS,Secondary,571,47
5350336,Perth & Kinross,Local Authority,Crieff High School,Strathearn Community Campus,Pittenzie Road,CRIEFF,PH7 3JN,Secondary,573,52
5235634,Aberdeen City,Local Authority,Bridge Of Don Academy,Braehead Way,Bridge Of Don,ABERDEEN,AB22 8RR,Secondary,574,50
5632838,Scottish Borders,Local Authority,Kelso High School,Bowmont Street,Kelso,ROXBURGHSHIRE,TD5 7EG,Secondary,574,44
8470332,Grant-maintained,Grant-aided,Jordanhill School,45 Chamberlain Road,Jordanhill,GLASGOW,G13 1SP,Secondary,575,51
5210038,Moray,Local Authority,Elgin High School,High School Drive,New Elgin,ELGIN MORAY,IV30 6UD,Secondary,578,51
5902932,Dumfries & Galloway,Local Authority,Douglas Ewart High School,Corsbie Road,Newton Stewart,-,DG8 6JQ,Secondary,580,48
5329132,Dundee City,Local Authority,Craigie High School,Garnet Terrace,Dundee,-,DD4 7QD,Secondary,587,64
5939038,Dumfries & Galloway,Local Authority,Dumfries Academy,Academy Street,Dumfries,-,DG1 1DD,Secondary,588,47
5244234,Aberdeen City,Local Authority,Northfield Academy,Granitehill Place,Aberdeen,-,AB16 7AU,Secondary,595,52
8517932,North Lanarkshire,Local Authority,Clyde Valley High School,Castlehill Road,Wishaw,-,ML2 0LS,Secondary,596,50
8519234,North Lanarkshire,Local Authority,Brannock High School,Loanhead Road,Newarthill,MOTHERWELL,ML1 5AU,Secondary,596,54
5722330,Stirling,Local Authority,McLaren High School,Mollands Road,Callander,-,FK17 8JH,Secondary,599,48
8550131,South Lanarkshire,Local Authority,Lesmahagow High School,Strathaven Road,Lesmahagow,-,ML11 0FS,Secondary,603,52
5532930,Edinburgh City,Local Authority,Gracemount High School,136 Lasswade Road,Edinburgh,-,EH16 6TZ,Secondary,604,49
8626138,East Renfrewshire,Local Authority,St Luke's High School,Springfield Road,Barrhead,-,G78 2SG,Secondary,604,56
5230934,Aberdeenshire,Local Authority,Alford Academy,Alford Community Campus,Greystone Road,ALFORD,AB33 8TY,Secondary,611,55
5350239,Perth & Kinross,Local Authority,St John's RC Academy,North Inch Community Campus,Gowans Terrace,PERTH,PH1 5BF,Secondary,617,54
8516634,North Lanarkshire,Local Authority,Bellshill Academy,Main Street,Bellshill,-,ML4 1AR,Secondary,621,51
8516839,North Lanarkshire,Local Authority,Braidhurst High School,Dalriada Crescent,Motherwell,-,ML1 3XF,Secondary,623,54
8436134,Glasgow City,Local Authority,Notre Dame High School,160 Observatory Road,-,GLASGOW,G12 9LN,Secondary,628,47
8645434,Inverclyde,Local Authority,St Columba's High School,Fletcher Avenue,Gourock,-,PA19 1TN,Secondary,633,51
5221234,Aberdeenshire,Local Authority,Turriff Academy,Victoria Terrace,Turriff,ABERDEENSHIRE,AB53 4EE,Secondary,639,56
8216134,North Ayrshire,Local Authority,Auchenharvie Academy,Saltcoats Road,-,STEVENSTON,KA20 3JW,Secondary,639,63
8342032,East Dunbartonshire,Local Authority,Turnbull High School,St Mary's Road,Bishopbriggs,GLASGOW,G64 2EF,Secondary,641,56
5119332,Highland,Local Authority,Fortrose Academy,Academy Street,Fortrose,ROSS-SHIRE,IV10 8TW,Secondary,643,48
5234034,Aberdeen City,Local Authority,Bucksburn Academy,Kepplehills Road,Bucksburn,ABERDEEN,AB21 9DG,Secondary,646,68
5758734,Falkirk,Local Authority,Bo'ness Academy,Gauze Road,Bo'ness,-,EH51 9AS,Secondary,646,64
8620032,Renfrewshire,Local Authority,St Benedict's High School,Bridge of Weir Road,Linwood,-,PA5 8EX,Secondary,649,62
5547938,Midlothian,Local Authority,Beeslack Community High School,Edinburgh Road,Penicuik,-,EH26 0QF,Secondary,655,55
5252032,Aberdeenshire,Local Authority,Mearns Academy,Aberdeen Road,Laurencekirk,KINCARDINESHIRE,AB30 1ZJ,Secondary,661,55
5534038,Edinburgh City,Local Authority,St Augustine's High School,208 Broomhouse Road,Edinburgh,-,EH12 9AD,Secondary,661,51
8224633,East Ayrshire,Local Authority,St Joseph's Academy,Grassyards Road,Kilmarnock,-,KA3 7SL,Secondary,663,53
5257530,Aberdeenshire,Local Authority,Aboyne Academy,Bridgeview Road,Aboyne,ABERDEENSHIRE,AB34 5JN,Secondary,665,59
8549834,South Lanarkshire,Local Authority,Biggar High School,Market Road,Biggar,-,ML12 6AG,Secondary,668,51
8224439,East Ayrshire,Local Authority,James Hamilton Academy,Sutherland Drive,Kilmarnock,-,KA3 7DF,Secondary,669,49
5726131,Stirling,Local Authority,Bannockburn High School,Bannockburn Road,Bannockburn,STIRLING,FK7 0HQ,Secondary,670,56
8628939,Renfrewshire,Local Authority,Castlehead High School,Camphill,off Canal Street,PAISLEY,PA1 2HL,Secondary,670,62
5532736,Edinburgh City,Local Authority,Forrester High School,212 Broomhouse Road,Edinburgh,-,EH12 9AE,Secondary,673,52
5307031,Angus,Local Authority,Arbroath Academy,Glenisla Drive,Arbroath,-,DD11 5JD,Secondary,675,61
5307732,Angus,Local Authority,Webster's High School,Prosen Road,Kirriemuir,-,DD8 5BR,Secondary,677,64
5426138,Fife,Local Authority,Waid Academy,St Andrews Road,Anstruther,-,KY10 3HD,Secondary,677,56
5647339,Scottish Borders,Local Authority,Berwickshire High School,Duns,Berwickshire,-,TD11 3QG,Secondary,678,46
5102138,Highland,Local Authority,Wick High School,West Banks Avenue,Wick,-,KW1 4LU,Secondary,679,50
5447437,Fife,Local Authority,Lochgelly High School,Station Road,Lochgelly,-,KY5 8LZ,Secondary,683,67
5540739,Edinburgh City,Local Authority,Currie Community High School,31 Dolphin Avenue,Currie,EDINBURGH,EH14 5RD,Secondary,691,53
5541638,Edinburgh City,Local Authority,Balerno Community High School,5 Bridge Road,Balerno,EDINBURGH,EH14 7AQ,Secondary,695,53
8517134,North Lanarkshire,Local Authority,Our Lady's High School - Motherwell,Dalzell Drive,Motherwell,-,ML1 2DG,Secondary,696,54
5948630,Dumfries & Galloway,Local Authority,Lockerbie Academy,Glasgow Road,Lockerbie,DUMFRIESSHIRE,DG11 2AT,Secondary,701,55
5941032,Dumfries & Galloway,Local Authority,St Joseph's College,Craigs Road,Dumfries,-,DG1 4UU,Secondary,708,57
5153131,Highland,Local Authority,Nairn Academy,Duncan Drive,Nairn,-,IV12 4RD,Secondary,710,58
5702534,Clackmannanshire,Local Authority,Alloa Academy,Bowhouse Road,Alloa,-,FK10 1DN,Secondary,715,65
8110239,Argyll & Bute,Local Authority,Dunoon Grammar School,Ardenslate Road,Dunoon,ARGYLL,PA23 8LU,Secondary,716,64
6002730,Orkney Islands,Local Authority,Kirkwall Grammar School,Kirkwall,Orkney,-,KW15 1QN,Secondary,721,77
5208734,Moray,Local Authority,Buckie High School,West Cathcart Street,Buckie,MORAY,AB56 1QB,Secondary,725,58
5143837,Highland,Local Authority,Charleston Academy,General Booth Road,Kinmylies,INVERNESS,IV3 5PG,Secondary,726,62
5350131,Perth & Kinross,Local Authority,Blairgowrie High School,Beeches Road,Blairgowrie,-,PH10 6PW,Secondary,729,63
8632030,Renfrewshire,Local Authority,Trinity High School,Glebe Street,Renfrew,-,PA4 8TP,Secondary,731,58
5246237,Aberdeen City,Local Authority,Oldmachar Academy,Jesmond Drive,Bridge Of Don,ABERDEEN,AB22 8UR,Secondary,738,57
5231434,Aberdeenshire,Local Authority,The Gordon Schools,Castle Street,Huntly,ABERDEENSHIRE,AB54 4SE,Secondary,740,64
8435138,Glasgow City,Local Authority,King's Park Secondary School,14 Fetlar Drive,Simshill,GLASGOW,G44 5BL,Secondary,746,60
8433232,Glasgow City,Local Authority,Eastbank Academy,26 Academy Street,-,GLASGOW,G32 9AA,Secondary,747,59
5102030,Highland,Local Authority,Thurso High School,Ormlie Road,Thurso,-,KW14 7DS,Secondary,748,53
8224730,East Ayrshire,Local Authority,Stewarton Academy,Cairnduff Place,Stewarton,-,KA3 5QF,Secondary,749,59
5307430,Angus,Local Authority,Carnoustie High School,Shanwell Road,Carnoustie,-,DD7 7SS,Secondary,750,68
8337934,East Dunbartonshire,Local Authority,St Ninian's High School,Bellfield Road,Kirkintilloch,-,G66 1DT,Secondary,750,67
5222133,Aberdeenshire,Local Authority,Mintlaw Academy,Station Road,Mintlaw,PETERHEAD ABERDEENSHIRE,AB42 5FN,Secondary,755,67
5939232,Dumfries & Galloway,Local Authority,Dumfries High School,Marchmount,Dumfries,-,DG1 1PX,Secondary,755,59
5331137,Dundee City,Local Authority,Baldragon Academy,Burn Street,Dundee,-,DD3 0LB,Secondary,756,74
8243239,East Ayrshire,Local Authority,Cumnock Academy,Ayr Road,Cumnock,-,KA18 1EH,Secondary,757,63
5746639,Falkirk,Local Authority,Grangemouth High School,Tinto Drive,Grangemouth,-,FK3 0HW,Secondary,758,77
8342334,North Lanarkshire,Local Authority,Chryston High School,Lindsaybeg Road,Chryston,GLASGOW,G69 9DL,Secondary,761,58
5555930,East Lothian,Local Authority,Knox Academy,Pencaitland Road,Haddington,EAST LOTHIAN,EH41 4DT,Secondary,762,59
5518334,Edinburgh City,Local Authority,Queensferry Community High School,Ashburnham Road,South Queensferry,EDINBURGH,EH30 9JN,Secondary,763,55
5406536,Fife,Local Authority,Glenwood High School,South Parks Road,Glenrothes,-,KY6 1JX,Secondary,765,57
5330033,Dundee City,Local Authority,St Paul's RC Academy,90 Gillburn Road,Dundee,-,DD3 0EH,Secondary,767,75
5510430,West Lothian,Local Authority,Whitburn Academy,Shanks Road,Whitburn,WEST LOTHIAN,EH47 0HL,Secondary,771,62
5232937,Aberdeenshire,Local Authority,Westhill Academy,Hays Way,Westhill,ABERDEENSHIRE,AB32 6XZ,Secondary,773,67
5534232,Edinburgh City,Local Authority,St Thomas Of Aquin's High School,2-20 Chalmers Street,Edinburgh,-,EH3 9NH,Secondary,773,62
5545838,Midlothian,Local Authority,Dalkeith High School,2 Cousland Road,Dalkeith,-,EH22 2PS,Secondary,775,65
5258030,Aberdeenshire,Local Authority,Portlethen Academy,Bruntland Road,Portlethen,ABERDEEN,AB12 4QL,Secondary,776,66
8630534,Renfrewshire,Local Authority,Renfrew High School,Haining Road,Renfrew,-,PA4 0AN,Secondary,778,57
8431639,Glasgow City,Local Authority,Springburn Academy,151 Edgefauld Road,-,GLASGOW,G21 4JL,Secondary,779,62
8519137,North Lanarkshire,Local Authority,Taylor High School,Carfin Street,New Stevenston,MOTHERWELL,ML1 4JP,Secondary,779,60
5502330,West Lothian,Local Authority,West Calder High School,Limefield,Polbeth,WEST CALDER,EH55 8QN,Secondary,791,64
5233038,Aberdeenshire,Local Authority,Kemnay Academy,Bremner Way,Kemnay Inverurie,ABERDEENSHIRE,AB51 5FW,Secondary,794,63
5948339,Dumfries & Galloway,Local Authority,Annan Academy,St John's Road,Annan,DUMFRIESSHIRE,DG12 6AP,Secondary,795,60
8432139,Glasgow City,Local Authority,St Paul's High School,36 Damshot Road,-,GLASGOW,G53 5HW,Secondary,795,60
5406730,Fife,Local Authority,Glenrothes High School,Napier Road,Glenrothes,-,KY6 1HJ,Secondary,796,74
8238030,South Ayrshire,Local Authority,Kyle Academy,7 Overmills Road,Ayr,-,KA7 3LR,Secondary,802,64
5243432,Aberdeen City,Local Authority,Hazlehead Academy,Groat's Road,Aberdeen,-,AB15 8BE,Secondary,804,64
5534534,Edinburgh City,Local Authority,Trinity Academy,Craighall Avenue,Edinburgh,-,EH6 4RT,Secondary,811,60
5619734,Scottish Borders,Local Authority,Galashiels Academy,Elm Row,Galashiels,SELKIRKSHIRE,TD1 3HU,Secondary,813,60
5407230,Fife,Local Authority,St Andrew's R C High School,Overton Road,Kirkcaldy,-,KY1 3JL,Secondary,816,66
5251834,Aberdeenshire,Local Authority,Banchory Academy,Schoolhill,Banchory,KINCARDINESHIRE,AB31 5TQ,Secondary,821,69
5246431,Aberdeen City,Local Authority,St Machar Academy,St Machar Drive,Aberdeen,-,AB24 3YZ,Secondary,823,70
5203031,Moray,Local Authority,Forres Academy,Burdsyard Road,Forres,MORAY,IV36 1FG,Secondary,827,63
1002732,North Lanarkshire,Local Authority,Cumbernauld Academy,South Kildrum Ring Road,Cumbernauld,-,G67 2UF,Secondary,828,75
5135931,Highland,Local Authority,Lochaber High School,Camaghael,Fort William,-,PH33 7ND,Secondary,830,65
8431930,Glasgow City,Local Authority,All Saints Secondary School,299 Ryehill Road,-,GLASGOW,G21 3EN,Secondary,830,67
5308038,Angus,Local Authority,Montrose Academy,Academy Square,Montrose,-,DD10 8HU,Secondary,832,68
8214638,North Ayrshire,Local Authority,Ardrossan Academy,Sorbie Road,-,ARDROSSAN,KA22 8AR,Secondary,843,68
8217831,North Ayrshire,Local Authority,Kilwinning Academy,Dalry Road,-,KILWINNING,KA13 7HD,Secondary,843,68
5509432,West Lothian,Local Authority,Bathgate Academy,Edinburgh Road,Bathgate,WEST LOTHIAN,EH48 1LF,Secondary,844,68
5555736,East Lothian,Local Authority,Dunbar Grammar School,Summerfield Road,Dunbar,-,EH42 1NJ,Secondary,846,70
5702836,Clackmannanshire,Local Authority,Alva Academy,Academy Avenue,Alva,-,FK12 5FE,Secondary,846,73
8628734,Renfrewshire,Local Authority,Paisley Grammar School,Glasgow Road,Paisley,-,PA1 3RR,Secondary,847,68
5446538,Fife,Local Authority,St Columba's R C High School,Woodmill Road,Dunfermline,-,KY11 4UN,Secondary,848,69
8438439,Glasgow City,Local Authority,St Mungo's Academy,235 Crownpoint Road,-,GLASGOW,G40 2RA,Secondary,852,63
5726239,Stirling,Local Authority,Stirling High School,Torbrex Farm Road,Stirling,-,FK8 2PA,Secondary,854,72
8243131,East Ayrshire,Local Authority,Auchinleck Academy,Sorn Road,Auchinleck,-,KA18 2LY,Secondary,854,65
5213231,Aberdeenshire,Local Authority,Banff Academy,Bellevue Road,Banff,ABERDEENSHIRE,AB45 1BY,Secondary,855,71
5510031,West Lothian,Local Authority,Broxburn Academy,Cardross Road,Broxburn,WEST LOTHIAN,EH52 6AG,Secondary,863,68
8517738,North Lanarkshire,Local Authority,Coltness High School,Mossland Drive,Coltness,WISHAW,ML2 8NA,Secondary,863,63
8645132,Inverclyde,Local Authority,Notre Dame High School,Dunlop Street,Greenock,-,PA15 4NW,Secondary,863,70
8438838,Glasgow City,Local Authority,St Thomas Aquinas Secondary School,112 Mitre Road,-,GLASGOW,G14 9PP,Secondary,865,64
8601836,East Renfrewshire,Local Authority,Woodfarm High School,Robslee Road,Thornliebank,GLASGOW,G46 7HG,Secondary,872,74
5307139,Angus,Local Authority,Arbroath High School,Keptie Road,Arbroath,-,DD11 3EN,Secondary,875,75
5722438,Stirling,Local Authority,Dunblane High School,Old Doune Road,Dunblane,PERTHSHIRE,FK15 9EW,Secondary,875,66
8223831,East Ayrshire,Local Authority,Loudoun Academy,Glasgow Road,Galston,-,KA4 8PD,Secondary,878,68
8325936,East Dunbartonshire,Local Authority,Boclair Academy,Inveroran Drive,Bearsden,-,G61 2PL,Secondary,878,69
5726034,Stirling,Local Authority,Balfron High School,Roman Road,Balfron,-,G63 0PW,Secondary,879,70
5556031,East Lothian,Local Authority,North Berwick High School,Grange Road,North Berwick,EAST LOTHIAN,EH39 4QS,Secondary,883,68
5231639,Aberdeenshire,Local Authority,Inverurie Academy,Jackson Street,Inverurie,ABERDEENSHIRE,AB51 3PX,Secondary,885,73
5632536,Scottish Borders,Local Authority,Hawick High School,Buccleuch Road,Hawick,ROXBURGHSHIRE,TD9 0EG,Secondary,887,65
8110336,Argyll & Bute,Local Authority,Oban High School,Soroba Road,Oban,ARGYLL,PA34 4JB,Secondary,887,77
8640130,Inverclyde,Local Authority,Clydeview Academy,Burnside Road,Gourock,-,PA19 1UX,Secondary,893,75
8237832,South Ayrshire,Local Authority,Marr College,Dundonald Road,Troon,-,KA10 7AB,Secondary,897,66
5533236,Edinburgh City,Local Authority,Leith Academy,20 Academy Park,Edinburgh,-,EH6 8JQ,Secondary,898,74
8640033,Inverclyde,Local Authority,Inverclyde Academy,Cumberland Road,Greenock,-,PA16 0FB,Secondary,902,70
8458731,Glasgow City,Local Authority,John Paul Academy,2 Arrochar Street,-,GLASGOW,G23 5LY,Secondary,903,70
5509238,West Lothian,Local Authority,Armadale Academy,West Main Street,Armadale,WEST LOTHIAN,EH48 3LY,Secondary,906,67
5546036,Midlothian,Local Authority,Newbattle High School,64 Easthouses Road,Dalkeith,-,EH22 4EW,Secondary,906,73
8434336,Glasgow City,Local Authority,Hillpark Secondary School,36 Cairngorm Road,-,GLASGOW,G43 2XA,Secondary,906,77
5330432,Dundee City,Local Authority,Morgan Academy,Forfar Road,Dundee,-,DD4 7AX,Secondary,909,77
6103634,Shetland Islands,Local Authority,Anderson High School,Lovers Loan,Lerwick,SHETLAND,ZE1 0JH,Secondary,910,78
5243238,Aberdeen City,Local Authority,Harlaw Academy,18/20 Albyn Place,Aberdeen,-,AB10 1RG,Secondary,912,65
8357439,North Lanarkshire,Local Authority,Our Lady's High School - Cumbernauld,Dowanfield Road,Cumbernauld,-,G67 1LA,Secondary,916,68
8432031,Glasgow City,Local Authority,Bellahouston Academy,30 Gower Terrace,-,GLASGOW,G41 5QE,Secondary,916,68
8304238,West Dunbartonshire,Local Authority,Our Lady & St Patrick's High School,Hawthornhill Road,Castlehill,DUMBARTON,G82 5JN,Secondary,925,78
8628130,Renfrewshire,Local Authority,Johnstone High School,Beith Road,Johnstone,-,PA5 0JN,Secondary,938,72
8358931,North Lanarkshire,Local Authority,St Maurice's High School,Westfield,Cumbernauld,-,G68 9AG,Secondary,940,69
8304831,West Dunbartonshire,Local Authority,Vale Of Leven Academy,Main Street,-,ALEXANDRIA,G83 0BH,Secondary,942,83
5726530,Stirling,Local Authority,Wallace High School,Airthrey Road,Stirling,-,FK9 5HW,Secondary,945,81
8633436,Renfrewshire,Local Authority,Gryffe High School,Old Bridge of Weir Road,Houston,-,PA6 7EB,Secondary,945,74
5726336,Stirling,Local Authority,St Modan's High School,Royal Stuart Way,Stirling,-,FK7 7WS,Secondary,950,77
5350638,Perth & Kinross,Local Authority,Perth Academy,Murray Place,Perth,-,PH1 1NJ,Secondary,951,74
5903130,Dumfries & Galloway,Local Authority,Stranraer Academy,McMaster's Road,Stranraer,-,DG9 8BY,Secondary,955,74
5232333,Aberdeenshire,Local Authority,Meldrum Academy,Colpy Road,Oldmeldrum,ABERDEENSHIRE,AB51 0NT,Secondary,957,77
8215634,North Ayrshire,Local Authority,Garnock Community Campus,Beith Road,-,GLENGARNOCK,KA14 3BF,Secondary,962,75
8458634,South Lanarkshire,Local Authority,Stonelaw High School,140 Calderwood Road,Rutherglen,-,G73 3BP,Secondary,964,79
8533830,South Lanarkshire,Local Authority,Strathaven Academy,Bowling Green Road,Strathaven,-,ML10 6DP,Secondary,964,75
5702631,Clackmannanshire,Local Authority,Lornshill Academy,Tullibody Road,Alloa,-,FK10 2ES,Secondary,987,87
8516936,North Lanarkshire,Local Authority,Dalziel High School,Crawford Street,Motherwell,-,ML1 3AG,Secondary,987,77
8524939,South Lanarkshire,Local Authority,St John Ogilvie High School,Farm Road,Burnbank,HAMILTON,ML3 9LA,Secondary,996,76
5307538,Angus,Local Authority,Forfar Academy,Taylor Street,Forfar,-,DD8 3LB,Secondary,997,85
8325731,East Dunbartonshire,Local Authority,Douglas Academy,Craigton Road,Milngavie,-,G62 7HS,Secondary,997,80
5142938,Highland,Local Authority,Inverness Royal Academy,Culduthel Road,Inverness,-,IV2 6RE,Secondary,998,74
5502535,West Lothian,Local Authority,Deans Community High School,Eastwood Park,Deans,LIVINGSTON,EH54 8PS,Secondary,"1,000",79
5556139,East Lothian,Local Authority,Preston Lodge High School,Park View,Prestonpans,EAST LOTHIAN,EH32 9QJ,Secondary,"1,000",80
5202736,Moray,Local Authority,Elgin Academy,Morriston Road,Elgin,MORAY,IV30 4ND,Secondary,"1,005",75
5330831,Dundee City,Local Authority,St John's RC High School,Harefield Road,Dundee,-,DD3 6EY,Secondary,"1,007",83
5556236,East Lothian,Local Authority,Ross High School,Well Wynd,Tranent,EAST LOTHIAN,EH33 2EQ,Secondary,"1,007",83
8517436,North Lanarkshire,Local Authority,St Aidan's High School,Waverley Drive,Wishaw,-,ML2 7EW,Secondary,"1,010",73
5746531,Falkirk,Local Authority,Braes High School,Newlands Road,Reddingmuirhead,FALKIRK,FK2 0DA,Secondary,"1,011",88
5235839,Aberdeen City,Local Authority,Cults Academy,Quarry Road,Cults,ABERDEEN,AB15 9TP,Secondary,"1,012",73
8518637,North Lanarkshire,Local Authority,Cardinal Newman High School,Main Street,Bellshill,-,ML4 3DW,Secondary,"1,016",76
8601739,East Renfrewshire,Local Authority,Eastwood High School,Capelrig Road,Newton Mearns,-,G77 6NQ,Secondary,"1,019",91
5533031,Edinburgh City,Local Authority,Holy Rood RC High School,55 Duddingston Road West,Edinburgh,-,EH15 3ST,Secondary,"1,025",80
8458030,South Lanarkshire,Local Authority,Trinity High School,Glenside Drive,Rutherglen,-,G73 3LW,Secondary,"1,026",76
8550034,South Lanarkshire,Local Authority,Lanark Grammar School,Kirklands Road,Lanark,-,ML11 9AJ,Secondary,"1,026",101
5746132,Falkirk,Local Authority,Graeme High School,Callendar Road,Falkirk,-,FK1 1SY,Secondary,"1,027",91
8434638,Glasgow City,Local Authority,Hyndland Secondary School,74 Lauderdale Gardens,-,GLASGOW,G12 9RQ,Secondary,"1,028",72
5350832,Perth & Kinross,Local Authority,Perth Grammar School,Gowans Terrace,Perth,-,PH1 5AZ,Secondary,"1,029",82
8549931,South Lanarkshire,Local Authority,Carluke High School,Carnwath Road,Carluke,-,ML8 4EA,Secondary,"1,033",75
8505632,North Lanarkshire,Local Authority,Caldervale High School,Towers Road,Airdrie,-,ML6 8PG,Secondary,"1,038",83
5339537,Angus,Local Authority,Monifieth High School,Panmurefield Road,Monifieth,-,DD5 4QT,Secondary,"1,041",80
5502632,West Lothian,Local Authority,Inveralmond Community High School,Willowbank,Ladywell,LIVINGSTON,EH54 6HW,Secondary,"1,045",78
5143934,Highland,Local Authority,Culloden Academy,Keppoch Road,Culloden,INVERNESS,IV2 7JZ,Secondary,"1,048",69
5119138,Highland,Local Authority,Dingwall Academy,Dingwall,-,-,IV15 9LT,Secondary,"1,052",84
6233139,Eilean Siar,Local Authority,The Nicolson Institute,Stornoway,Lewis,-,HS1 2PZ,Secondary,"1,052",88
5350530,Perth & Kinross,Local Authority,Kinross High School,Loch Leven Community Campus,The Muirs,KINROSS,KY13 8FQ,Secondary,"1,054",77
5616530,Scottish Borders,Local Authority,Earlston High School,Earlston,Berwickshire,-,TD4 6HF,Secondary,"1,056",74
8215839,North Ayrshire,Local Authority,Largs Academy,Flatt Road,-,LARGS,KA30 9JX,Secondary,"1,061",79
8434239,Glasgow City,Local Authority,Hillhead High School,22-44 Oakfield Avenue,-,GLASGOW,G12 8LJ,Secondary,"1,067",77
8505438,North Lanarkshire,Local Authority,Airdrie Academy,South Commonhead Avenue,Airdrie,-,ML6 6NX,Secondary,"1,072",79
8525331,South Lanarkshire,Local Authority,Uddingston Grammar School,Old Glasgow Road,Uddingston,-,G71 7BT,Secondary,"1,073",93
5244439,Aberdeen City,Local Authority,Aberdeen Grammar School,Skene Street,Aberdeen,-,AB10 1HT,Secondary,"1,078",79
5745632,Falkirk,Local Authority,Falkirk High School,Westburn Avenue,Falkirk,-,FK1 5BZ,Secondary,"1,082",97
5251931,Aberdeenshire,Local Authority,Mackie Academy,Slug Road,Stonehaven,KINCARDINESHIRE,AB39 3DF,Secondary,"1,087",84
8458332,South Lanarkshire,Local Authority,Cathkin High School,Langlea Road,Cambuslang,-,G72 8ES,Secondary,"1,088",95
5142830,Highland,Local Authority,Millburn Academy,Diriebught Road,Inverness,-,IV2 3QR,Secondary,"1,101",81
5231132,Aberdeenshire,Local Authority,Ellon Academy,Community Campus,Kellie Pearl Way,ELLON,AB41 8LF,Secondary,"1,101",95
5447232,Fife,Local Authority,Beath High School,Foulford Road,Cowdenbeath,-,KY4 9BH,Secondary,"1,101",90
5512530,West Lothian,Local Authority,St Margaret's Academy,Howden South Road,Howden,LIVINGSTON,EH54 6AT,Secondary,"1,106",82
5220734,Aberdeenshire,Local Authority,Peterhead Academy,Prince Street,Peterhead,ABERDEENSHIRE,AB42 1SY,Secondary,"1,109",86
5407036,Fife,Local Authority,Kirkcaldy High School,Dunnikier Way,Kirkcaldy,-,KY1 3LR,Secondary,"1,109",80
5531632,Edinburgh City,Local Authority,Broughton High School,29 East Fettes Avenue,Edinburgh,-,EH4 1EG,Secondary,"1,111",86
5550831,East Lothian,Local Authority,Musselburgh Grammar School,86 Inveresk Road,Musselburgh,EAST LOTHIAN,EH21 7BA,Secondary,"1,114",86
8506132,North Lanarkshire,Local Authority,Coatbridge High School,17 Park Street,Coatbridge,-,ML5 3NP,Secondary,"1,119",83
5532639,Edinburgh City,Local Authority,Firrhill High School,9 Oxgangs Road North,Firrhill,EDINBURGH,EH14 1DP,Secondary,"1,130",82
8236836,South Ayrshire,Local Authority,Prestwick Academy,15 Newdykes Road,Prestwick,-,KA9 2LB,Secondary,"1,131",81
8436339,Glasgow City,Local Authority,Rosshall Academy,131 Crookston Road,-,GLASGOW,G52 3PD,Secondary,"1,131",94
5532132,Edinburgh City,Local Authority,Craigmount High School,59 Craigs Road,Edinburgh,-,EH12 8NH,Secondary,"1,135",85
5512131,West Lothian,Local Authority,The James Young High School,Quentin Rise,Dedridge West,LIVINGSTON,EH54 6NE,Secondary,"1,140",87
5219736,Aberdeenshire,Local Authority,Fraserburgh Academy,Dennyduff Road,Fraserburgh,ABERDEENSHIRE,AB43 9NA,Secondary,"1,149",87
8628831,Renfrewshire,Local Authority,Gleniffer High School,Amochrie Road,Paisley,-,PA2 0AQ,Secondary,"1,152",81
8524831,South Lanarkshire,Local Authority,Holy Cross High School,51 New Park Street,Hamilton,-,ML3 0BN,Secondary,"1,154",87
5531438,Edinburgh City,Local Authority,Boroughmuir High School,Viewforth,Edinburgh,-,EH10 4LR,Secondary,"1,160",80
8338132,East Dunbartonshire,Local Authority,Lenzie Academy,Myrtle Avenue,Lenzie,-,G66 4HR,Secondary,"1,167",94
5446732,Fife,Local Authority,Inverkeithing High School,Hillend Road,Inverkeithing,-,KY11 1PL,Secondary,"1,170",89
8506736,North Lanarkshire,Local Authority,St Ambrose High School,65 Townhead Road,Coatbridge,-,ML5 2HT,Secondary,"1,179",86
8435839,Glasgow City,Local Authority,Lourdes Secondary School,47 Kirriemuir Avenue,-,GLASGOW,G52 3DF,Secondary,"1,180",87
8505934,North Lanarkshire,Local Authority,St Margaret's High School,Waverley Drive,Airdrie,-,ML6 6EU,Secondary,"1,181",88
8458138,Glasgow City,Local Authority,Bannerman High School,119 Glasgow Road,-,GLASGOW,G69 7NS,Secondary,"1,184",89
8525234,South Lanarkshire,Local Authority,Larkhall Academy,Broomhill Road,Larkhall,-,ML9 1QN,Secondary,"1,185",102
5509939,West Lothian,Local Authority,St Kentigern's Academy,West Main Street,Blackburn,WEST LOTHIAN,EH47 7LX,Secondary,"1,188",89
5533139,Edinburgh City,Local Authority,James Gillespie's High School,57 Lauderdale Street,Edinburgh,-,EH9 1DD,Secondary,"1,198",84
5746434,Falkirk,Local Authority,St Mungo's RC High School,Merchison Avenue,Falkirk,-,FK2 7JT,Secondary,"1,200",107
8325634,East Dunbartonshire,Local Authority,Bearsden Academy,Stockiemuir Road,Bearsden,-,G61 3SF,Secondary,"1,201",99
8436932,Glasgow City,Local Authority,Shawlands Academy,31 Moss-side Road,-,GLASGOW,G41 3TR,Secondary,"1,205",84
8340030,East Dunbartonshire,Local Authority,Bishopbriggs Academy,Wester Cleddens Road,Bishopbriggs,-,G64 1HZ,Secondary,"1,207",95
8314136,West Dunbartonshire,Local Authority,Clydebank High School,Janetta Street,-,CLYDEBANK,G81 3EJ,Secondary,"1,219",95
8435634,Glasgow City,Local Authority,Knightswood Secondary School,60 Knightswood Road,-,GLASGOW,G13 2XD,Secondary,"1,225",94
5510236,West Lothian,Local Authority,Linlithgow Academy,Braehead Road,Linlithgow,WEST LOTHIAN,EH49 6EH,Secondary,"1,239",91
5601932,Scottish Borders,Local Authority,Peebles High School,Springwood Road,Peebles,PEEBLESSHIRE,EH45 9HB,Secondary,"1,239",83
8210039,North Ayrshire,Local Authority,St Matthew's Academy,Jack's Road,-,SALTCOATS,KA21 5NT,Secondary,"1,239",98
8224234,East Ayrshire,Local Authority,Grange Academy,Beech Avenue,Kilmarnock,-,KA1 2EW,Secondary,"1,242",95
8602239,East Renfrewshire,Local Authority,Mearns Castle High School,Waterfoot Road,Newton Mearns,-,G77 5RU,Secondary,"1,246",99
5446430,Fife,Local Authority,Woodmill High School,Shields Road,Dunfermline,-,KY11 4ER,Secondary,"1,247",105
5533732,Edinburgh City,Local Authority,The Royal High School,East Barnton Avenue,Edinburgh,-,EH4 6JP,Secondary,"1,253",83
8524734,South Lanarkshire,Local Authority,Hamilton Grammar School,Auchincampbell Road,Hamilton,-,ML3 6PE,Secondary,"1,255",105
5329434,Dundee City,Local Authority,Grove Academy,Claypotts Road,Broughty Ferry,DUNDEE,DD5 1AB,Secondary,"1,258",94
8530130,South Lanarkshire,Local Authority,Calderside Academy,Calder Street,Blanytre,-,G72 0AX,Secondary,"1,262",109
5406439,Fife,Local Authority,Auchmuty High School,Dovecot Road,Glenrothes,-,KY7 5JL,Secondary,"1,263",93
5745438,Falkirk,Local Authority,Denny High School,Herbertshire Park,Denny,-,FK6 6EE,Secondary,"1,266",114
8235732,South Ayrshire,Local Authority,Belmont Academy,Nursery Road,Ayr,-,KA7 2PG,Secondary,"1,268",91
8357331,North Lanarkshire,Local Authority,Greenfaulds High School,Athelstane Drive,Cumbernauld,-,G67 4AQ,Secondary,"1,272",95
5426537,Fife,Local Authority,Madras College,South Street,St Andrews,-,KY16 9EJ,Secondary,"1,288",107
8304734,Argyll & Bute,Local Authority,Hermitage Academy,Cardross Road,Helensburgh,-,G84 7LA,Secondary,"1,296",100
8520038,South Lanarkshire,Local Authority,St Andrew's and St Bride's High School,Platthorn Drive,East Kilbride,-,G74 1NL,Secondary,"1,309",101
8215030,North Ayrshire,Local Authority,Greenwood Academy,Dreghorn,-,IRVINE,KA11 4HL,Secondary,"1,314",102
5329531,Dundee City,Local Authority,Harris Academy,Lawton Road,Dundee,-,DD3 6SY,Secondary,"1,315",106
5533538,Edinburgh City,Local Authority,Portobello High School,10 Duddingston Road,Edinburgh,-,EH15 1NF,Secondary,"1,323",94
8500037,North Lanarkshire,Local Authority,St Andrew's High School,9 Old Monkland Road,Coatbridge,-,ML5 5EA,Secondary,"1,341",101
8627932,Renfrewshire,Local Authority,Park Mains High School,Park Mains,Erskine,-,PA8 6EY,Secondary,"1,354",96
8530033,South Lanarkshire,Local Authority,Calderglen High School,High Common Road,St Leonard's,EAST KILBRIDE,G74 2LP,Secondary,"1,391",113
8629439,Renfrewshire,Local Authority,St Andrew's Academy,Barrhead Road,Paisley,-,PA2 7LG,Secondary,"1,402",96
8300135,West Dunbartonshire,Local Authority,St Peter the Apostle High School,Kirkoswald Drive,-,CLYDEBANK,G81 2DB,Secondary,"1,433",106
5426332,Fife,Local Authority,Bell Baxter High School,Carslogie Road,Cupar,-,KY15 4HY,Secondary,"1,459",107
5351030,Perth & Kinross,Local Authority,Perth High School,Oakbank Road,Perth,-,PH1 1HB,Secondary,"1,465",106
5546532,Midlothian,Local Authority,Lasswade High School Centre,Eskdale Drive,Bonnyrigg,-,EH19 2LA,Secondary,"1,526",108
5446236,Fife,Local Authority,Queen Anne High School,Pilmuir Street,Broomhead,DUNFERMLINE,KY12 0PQ,Secondary,"1,544",117
5406838,Fife,Local Authority,Balwearie High School,Balwearie Gardens,Kirkcaldy,-,KY2 5LY,Secondary,"1,547",121
5446139,Fife,Local Authority,Dunfermline High School,St Leonard's Place,Dunfermline,-,KY11 3BQ,Secondary,"1,549",110
8533431,South Lanarkshire,Local Authority,Duncanrig Secondary School,Winnipeg Drive,East Kilbride,-,G75 8ZT,Secondary,"1,582",125
1003232,Fife,Local Authority,Levenmouth Academy,Methilhaven Road,Buckhaven,FIFE,KY8 1HL,Secondary,"1,604",119
5747031,Falkirk,Local Authority,Larbert High School,Carrongrange Avenue,Stenhousemuir,LARBERT,FK5 3BL,Secondary,"1,678",140
8602034,East Renfrewshire,Local Authority,Williamwood High School,Eaglesham Road,Clarkston,GLASGOW,G76 8RF,Secondary,"1,678",130
8437238,Glasgow City,Local Authority,St Andrew's Secondary School,47 Torphin Crescent,-,GLASGOW,G32 6QE,Secondary,"1,705",112
8602433,East Renfrewshire,Local Authority,St Ninian's High School,Eastwood Park,Rouken Glen Road,GIFFNOCK,G46 6UG,Secondary,"1,802",140
8434530,Glasgow City,Local Authority,Holyrood Secondary School,100 Dixon Road,-,GLASGOW,G42 8AU,Secondary,"2,027",132