Postcode,Description,Grid Reference,X (easting),Y (northing),Latitude,Longitude,School Name,LA Name,Centre Type,Address Line1,Address Line2,Address Line3,Post Code
AB12 3JG,AB12 3JG,NJ 94392 02171,394392,802171,57.11046,-2.0942214,Lochside Academy,Aberdeen City,Local Authority,Wellington Circle,Altens,ABERDEEN,AB12 3JG
AB21 9DG,AB21 9DG,NJ 88953 09540,388953,809540,57.176556,-2.1843478,Bucksburn Academy,Aberdeen City,Local Authority,Kepplehills Road,Bucksburn,ABERDEEN,AB21 9DG
AB22 8RR,AB22 8RR,NJ 93322 10540,393322,810540,57.185624,-2.1121146,Bridge Of Don Academy,Aberdeen City,Local Authority,Braehead Way,Bridge Of Don,ABERDEEN,AB22 8RR
AB15 9TP,AB15 9TP,NJ 88513 02863,388513,802863,57.116565,-2.1913149,Cults Academy,Aberdeen City,Local Authority,Quarry Road,Cults,ABERDEEN,AB15 9TP
AB10 1RG,AB10 1RG,NJ 92982 05737,392982,805737,57.142474,-2.1176021,Harlaw Academy,Aberdeen City,Local Authority,18/20 Albyn Place,Aberdeen,,AB10 1RG
AB21 7NF,AB21 7NF,NJ 89469 12786,389469,812786,57.205726,-2.1759523,Dyce Academy,Aberdeen City,Local Authority,Riverview Drive,Dyce,ABERDEEN,AB21 7NF
AB15 8BE,AB15 8BE,NJ 89291 05945,389291,805945,57.14427,-2.1786016,Hazlehead Academy,Aberdeen City,Local Authority,Groat's Road,Aberdeen,,AB15 8BE
AB16 7AU,AB16 7AU,NJ 91213 07944,391213,807944,57.162268,-2.146912,Northfield Academy,Aberdeen City,Local Authority,Granitehill Place,Aberdeen,,AB16 7AU
AB10 1HT,AB10 1HT,NJ 93084 06234,393084,806234,57.14694,-2.1159306,Aberdeen Grammar School,Aberdeen City,Local Authority,Skene Street,Aberdeen,,AB10 1HT
AB22 8UR,AB22 8UR,NJ 92775 11200,392775,811200,57.191544,-2.1211833,Oldmachar Academy,Aberdeen City,Local Authority,Jesmond Drive,Bridge Of Don,ABERDEEN,AB22 8UR
AB24 3YZ,AB24 3YZ,NJ 93375 08362,393375,808362,57.16606,-2.1111789,St Machar Academy,Aberdeen City,Local Authority,St Machar Drive,Aberdeen,,AB24 3YZ
AB45 1BY,AB45 1BY,NJ 68291 63775,368291,863775,57.662739,-2.5331099,Banff Academy,Aberdeenshire,Local Authority,Bellevue Road,Banff,ABERDEENSHIRE,AB45 1BY
AB43 9NA,AB43 9NA,NJ 99182 66438,399182,866438,57.687782,-2.0153828,Fraserburgh Academy,Aberdeenshire,Local Authority,Dennyduff Road,Fraserburgh,ABERDEENSHIRE,AB43 9NA
AB42 1SY,AB42 1SY,NK 12761 46457,412761,846457,57.50813,-1.7886842,Peterhead Academy,Aberdeenshire,Local Authority,Prince Street,Peterhead,ABERDEENSHIRE,AB42 1SY
AB53 4EE,AB53 4EE,NJ 72502 49620,372502,849620,57.535876,-2.4609235,Turriff Academy,Aberdeenshire,Local Authority,Victoria Terrace,Turriff,ABERDEENSHIRE,AB53 4EE
AB42 5FN,AB42 5FN,NJ 99307 48265,399307,848265,57.524546,-2.0132258,Mintlaw Academy,Aberdeenshire,Local Authority,Station Road,Mintlaw,PETERHEAD ABERDEENSHIRE,AB42 5FN
AB33 8TY,AB33 8TY,NJ 57395 15961,357395,815961,57.232378,-2.7073724,Alford Academy,Aberdeenshire,Local Authority,Alford Community Campus,Greystone Road,ALFORD,AB33 8TY
AB41 8LF,AB41 8LF,NJ 96864 29835,396864,829835,57.358986,-2.053771,Ellon Academy,Aberdeenshire,Local Authority,Community Campus,Kellie Pearl Way,ELLON,AB41 8LF
AB54 4SE,AB54 4SE,NJ 52980 40270,352980,840270,57.450286,-2.7851443,The Gordon Schools,Aberdeenshire,Local Authority,Castle Street,Huntly,ABERDEENSHIRE,AB54 4SE
AB51 3QZ,AB51 3QZ,NJ 77238 21504,377238,821504,57.28359,-2.3792053,Inverurie Academy,Aberdeenshire,Local Authority,"Inverurie Community Campus, Victoria Street",Inverurie,ABERDEENSHIRE,AB51 3QZ
AB51 0NT,AB51 0NT,NJ 80129 27471,380129,827471,57.337325,-2.3317348,Meldrum Academy,Aberdeenshire,Local Authority,Colpy Road,Oldmeldrum,ABERDEENSHIRE,AB51 0NT
AB32 6XZ,AB32 6XZ,NJ 83018 07268,383018,807268,57.155964,-2.2823523,Westhill Academy,Aberdeenshire,Local Authority,Hays Way,Westhill,ABERDEENSHIRE,AB32 6XZ
AB51 5FW,AB51 5FW,NJ 72971 16745,372971,816745,57.240608,-2.4494604,Kemnay Academy,Aberdeenshire,Local Authority,Bremner Way,Kemnay Inverurie,ABERDEENSHIRE,AB51 5FW
AB31 5TQ,AB31 5TQ,NO 70197 95840,370197,795840,57.052653,-2.4929141,Banchory Academy,Aberdeenshire,Local Authority,Schoolhill,Banchory,KINCARDINESHIRE,AB31 5TQ
AB39 3DF,AB39 3DF,NO 86573 86710,386573,786710,56.971409,-2.2224792,Mackie Academy,Aberdeenshire,Local Authority,Slug Road,Stonehaven,KINCARDINESHIRE,AB39 3DF
AB30 1ZJ,AB30 1ZJ,NO 72062 71693,372062,771693,56.835857,-2.459495,Mearns Academy,Aberdeenshire,Local Authority,Aberdeen Road,Laurencekirk,KINCARDINESHIRE,AB30 1ZJ
AB34 5JN,AB34 5JN,NO 51989 98490,351989,798490,57.074915,-2.7935428,Aboyne Academy,Aberdeenshire,Local Authority,Bridgeview Road,Aboyne,ABERDEENSHIRE,AB34 5JN
AB12 4QL,AB12 4QL,NO 92128 96478,392128,796478,57.059285,-2.1314184,Portlethen Academy,Aberdeenshire,Local Authority,Bruntland Road,Portlethen,ABERDEEN,AB12 4QL
DD11 5JD,DD11 5JD,NO 64882 42094,364882,742094,56.569475,-2.5731044,Arbroath Academy,Angus,Local Authority,Glenisla Drive,Arbroath,,DD11 5JD
DD11 3EN,DD11 3EN,NO 63040 41262,363040,741262,56.561859,-2.6029596,Arbroath High School,Angus,Local Authority,Keptie Road,Arbroath,,DD11 3EN
DD9 6LB,DD9 6LB,NO 59049 60762,359049,760762,56.736698,-2.6709948,Brechin High School,Angus,Local Authority,Brechin Community Campus,Duke Street,BRECHIN,DD9 6LB
DD7 7SS,DD7 7SS,NO 55606 35118,355606,735118,56.506021,-2.7228513,Carnoustie High School,Angus,Local Authority,Shanwell Road,Carnoustie,,DD7 7SS
DD8 3TG,DD8 3TG,NO 45177 51708,345177,751708,56.653943,-2.895783,Forfar Academy,Angus,Local Authority,Forfar Community Campus,Kirriemuir Road,FORFAR,DD8 3TG
DD8 5BR,DD8 5BR,postcode not found,,,56.67069443,-3.006241785,Webster's High School,Angus,Local Authority,Prosen Road,Kirriemuir,,DD8 5BR
DD10 8HU,DD10 8HU,NO 71686 57616,371686,757616,56.709377,-2.4640929,Montrose Academy,Angus,Local Authority,Academy Square,Montrose,,DD10 8HU
DD5 4QT,DD5 4QT,NO 48399 32059,348399,732059,56.477805,-2.8393195,Monifieth High School,Angus,Local Authority,Panmurefield Road,Monifieth,,DD5 4QT
PA43 7LS,PA43 7LS,NR 30793 59668,130793,659668,55.75526,-6.2922871,Islay High School,Argyll & Bute,Local Authority,Bowmore,Isle Of Islay,ARGYLL,PA43 7LS
PA28 6JS,PA28 6JS,NR 72089 19671,172089,619671,55.417802,-5.6026583,Campbeltown Grammar School,Argyll & Bute,Local Authority,Hutcheon Road,Campbeltown,ARGYLL,PA28 6JS
PA77 6XA,PA77 6XA,NL 97998 47134,97998,747134,56.518935,-6.9120596,Tiree High School,Argyll & Bute,Local Authority,Isle Of Tiree,Argyll,,PA77 6XA
PA23 8LU,PA23 8LU,NS 17433 78202,217433,678202,55.962025,-4.9263612,Dunoon Grammar School,Argyll & Bute,Local Authority,Ardenslate Road,DUNOON,ARGYLL,PA23 8LU
PA34 4JB,PA34 4JB,NM 86157 29289,186157,729289,56.407278,-5.4675863,Oban High School,Argyll & Bute,Local Authority,Soroba Road,Oban,ARGYLL,PA34 4JB
PA29 6TE,PA29 6TE,NR 86443 68483,186443,668483,55.862081,-5.4142318,Tarbert Academy,Argyll & Bute,Local Authority,School Road,Tarbert,ARGYLL,PA29 6TE
PA75 6PB,PA75 6PB,NM 50406 55268,150406,755268,56.622557,-6.0704369,Tobermory High School,Argyll & Bute,Local Authority,Tobermory,Isle Of Mull,ARGYLL,PA75 6PB
PA31 8AA,PA31 8AA,NR 86537 87115,186537,687115,56.029228,-5.4274784,Lochgilphead High School,Argyll & Bute,Local Authority,Lochgilphead Joint Campus,Kilmory,LOCHGILPHEAD,PA31 8AA
PA20 9JH,PA20 9JH,NS 08664 63533,208664,663533,55.827001,-5.0562497,Rothesay Academy,Argyll & Bute,Local Authority,Rothesay Joint Campus,Townhead,ROTHESAY,PA20 9JH
G84 7LA,G84 7LA,NS 31536 81267,231536,681267,55.994687,-4.7026398,Hermitage Academy,Argyll & Bute,Local Authority,Cardross Road,Helensburgh,,G84 7LA
FK10 1DN,FK10 1DN,NS 88558 92127,288558,692127,56.108859,-3.7935327,Alloa Academy,Clackmannanshire,Local Authority,Bowhouse Road,Alloa,,FK10 1DN
FK10 2ES,FK10 2ES,NS 87317 94884,287317,694884,56.133325,-3.8146419,Lornshill Academy,Clackmannanshire,Local Authority,Tullibody Road,Alloa,,FK10 2ES
FK12 5FE,FK12 5FE,NS 88844 96767,288844,696767,56.150593,-3.7908726,Alva Academy,Clackmannanshire,Local Authority,Academy Avenue,Alva,,FK12 5FE
DG2 9DF,DG2 9DF,NX 96597 76530,296597,576530,55.072424,-3.6209473,North West Community Campus,Dumfries & Galloway,Local Authority,Alloway Road,Lochside,DUMFRIES,DG2 9DF
DG8 6JQ,DG8 6JQ,NX 40678 65665,240678,565665,54.960083,-4.4898853,Douglas Ewart High School,Dumfries & Galloway,Local Authority,Corsbie Road,Newton Stewart,,DG8 6JQ
DG9 8BY,DG9 8BY,NX 07454 60892,207454,560892,54.905527,-5.0048656,Stranraer Academy,Dumfries & Galloway,Local Authority,McMaster's Road,Stranraer,,DG9 8BY
DG7 1LQ,DG7 1LQ,NX 76594 63244,276594,563244,54.94853,-3.9282989,Castle Douglas High School,Dumfries & Galloway,Local Authority,Dunmuir Road,Castle Douglas,,DG7 1LQ
DG5 4LU,DG5 4LU,NX 82312 61164,282312,561164,54.931231,-3.838222,Dalbeattie High School,Dumfries & Galloway,Local Authority,Craignair Road,Dalbeattie,,DG5 4LU
DG7 3UX,DG7 3UX,NX 62287 81109,262287,581109,55.105207,-4.1601257,Dalry Secondary School,Dumfries & Galloway,Local Authority,Kirkland Street,Dalry,CASTLE DOUGLAS,DG7 3UX
DG6 4JN,DG6 4JN,NX 67922 50891,267922,550891,54.835372,-4.0579364,Kirkcudbright Academy,Dumfries & Galloway,Local Authority,St Mary's Wynd,Kirkcudbright,,DG6 4JN
DG1 1DD,DG1 1DD,NX 97220 76469,297220,576469,55.072006,-3.6111727,Dumfries Academy,Dumfries & Galloway,Local Authority,Academy Street,Dumfries,,DG1 1DD
DG1 1PX,DG1 1PX,NX 98281 76725,298281,576725,55.074524,-3.5946551,Dumfries High School,Dumfries & Galloway,Local Authority,Marchmount,Dumfries,,DG1 1PX
DG4 6JN,DG4 6JN,NS 77790 10391,277790,610391,55.372246,-3.929986,Sanquhar Academy,Dumfries & Galloway,Local Authority,Broomfield,Sanquhar,,DG4 6JN
DG3 5DS,DG3 5DS,NX 88268 95678,288268,595678,55.2426,-3.7588782,Wallace Hall Academy,Dumfries & Galloway,Local Authority,Station Road,Thornhill,DUMFRIESSHIRE,DG3 5DS
DG1 4UU,DG1 4UU,NX 97883 75477,297883,575477,55.063232,-3.6004382,St Joseph's College,Dumfries & Galloway,Local Authority,Craigs Road,Dumfries,,DG1 4UU
DG12 6AP,DG12 6AP,NY 19447 66304,319447,566304,54.984792,-3.2603132,Annan Academy,Dumfries & Galloway,Local Authority,St John's Road,Annan,DUMFRIESSHIRE,DG12 6AP
DG13 0BL,DG13 0BL,NY 35964 84838,335964,584838,55.153714,-3.006428,Langholm Academy,Dumfries & Galloway,Local Authority,Langholm,Dumfriesshire,,DG13 0BL
DG11 2AT,DG11 2AT,NY 13419 82293,313419,582293,55.127417,-3.3593422,Lockerbie Academy,Dumfries & Galloway,Local Authority,Glasgow Road,Lockerbie,DUMFRIESSHIRE,DG11 2AT
DG10 9QL,DG10 9QL,NT 08811 04717,308811,604717,55.328025,-3.4388367,Moffat Academy,Dumfries & Galloway,Local Authority,Jeff Brown Drive,Moffat,,DG10 9QL
DD4 7QD,DD4 7QD,NO 43228 31536,343228,731536,56.472511,-2.9231424,Craigie High School,Dundee City,Local Authority,Garnet Terrace,Dundee,,DD4 7QD
DD5 1AB,DD5 1AB,NO 45929 31265,345929,731265,56.470395,-2.8792486,Grove Academy,Dundee City,Local Authority,24 Claypotts Road,Broughty Ferry,DUNDEE,DD5 1AB
DD2 1NL,DD2 1NL,NO 37920 29793,337920,729793,56.456184,-3.0088737,Harris Academy,Dundee City,Local Authority,470 - 472 Perth Road,Dundee,,DD2 1NL
DD3 0EH,DD3 0EH,NO 39998 33224,339998,733224,56.487273,-2.9759535,St Paul's RC Academy,Dundee City,Local Authority,90 Gillburn Road,Dundee,,DD3 0EH
DD4 7AX,DD4 7AX,NO 41325 31790,341325,731790,56.474559,-2.9540849,Morgan Academy,Dundee City,Local Authority,Forfar Road,Dundee,,DD4 7AX
DD3 6EY,DD3 6EY,NO 38732 31907,338732,731907,56.47528,-2.9961981,St John's RC High School,Dundee City,Local Authority,Harefield Road,Dundee,,DD3 6EY
DD3 0LF,DD3 0LF,NO 38924 34195,338924,734195,56.495857,-2.9936189,Baldragon Academy,Dundee City,Local Authority,69 Harestane Road,Dundee,,DD3 0LF
DD4 0NL,DD4 0NL,NO 43694 33811,343694,733811,56.493003,-2.9160716,Braeview Academy,Dundee City,Local Authority,Berwick Drive,Dundee,,DD4 0NL
KA3 7DF,KA3 7DF,NS 44417 38378,244417,638378,55.614045,-4.4718097,Kilmarnock Academy,East Ayrshire,Local Authority,William McIlvanney Campus,Sutherland Drive,KILMARNOCK,KA3 7DF
KA18 1FQ,KA18 1FQ,NS 56059 20445,256059,620445,55.456623,-4.277806,Robert Burns Academy,East Ayrshire,Local Authority,The Barony Campus,Auchinleck Road,CUMNOCK,KA18 1FQ
KA4 8PD,KA4 8PD,NS 50124 37480,250124,637480,55.607775,-4.3807982,Loudoun Academy,East Ayrshire,Local Authority,Glasgow Road,Galston,,KA4 8PD
KA1 2EW,KA1 2EW,NS 41780 37750,241780,637750,55.607557,-4.5132728,Grange Academy,East Ayrshire,Local Authority,Beech Avenue,Kilmarnock,,KA1 2EW
KA3 7SL,KA3 7SL,NS 43735 38650,243735,638650,55.616268,-4.4827811,St Joseph's Academy,East Ayrshire,Local Authority,Grassyards Road,Kilmarnock,,KA3 7SL
KA3 5QF,KA3 5QF,NS 42841 46102,242841,646102,55.682874,-4.5012244,Stewarton Academy,East Ayrshire,Local Authority,Cairnduff Place,Stewarton,,KA3 5QF
KA6 7SJ,KA6 7SJ,NS 47649 05957,247649,605957,55.324009,-4.4027668,Doon Academy,East Ayrshire,Local Authority,Ayr Road,Dalmellington,,KA6 7SJ
G66 1NH,G66 1NH,NS 65338 73568,265338,673568,55.936247,-4.157313,East Dunbartonshire Central School,East Dunbartonshire,Local Authority,New College Lanarkshire Kirkintilloch Campus,50 Southbank Road,KIRKINTILLOCH,G66 1NH
G61 3AX,G61 3AX,NS 53458 73000,253458,673000,55.927673,-4.3470133,Bearsden Academy,East Dunbartonshire,Local Authority,St Andrew's Way,Bearsden,,G61 3AX
G62 7HS,G62 7HS,NS 53579 75222,253579,675222,55.947657,-4.3462847,Douglas Academy,East Dunbartonshire,Local Authority,Craigton Road,Milngavie,,G62 7HS
G61 2PL,G61 2PL,NS 55956 71492,255956,671492,55.91489,-4.3062646,Boclair Academy,East Dunbartonshire,Local Authority,Inveroran Drive,Bearsden,,G61 2PL
G66 3PA,G66 3PA,NS 67127 73458,267127,673458,55.935758,-4.128642,Kirkintilloch High School,East Dunbartonshire,Local Authority,Waterside Road,Kirkintilloch,,G66 3PA
G66 1DT,G66 1DT,NS 64961 73648,264961,673648,55.93686,-4.1633834,St Ninian's High School - Kirkintilloch,East Dunbartonshire,Local Authority,Bellfield Road,Kirkintilloch,,G66 1DT
G66 4HR,G66 4HR,NS 65143 72596,265143,672596,55.927466,-4.1599463,Lenzie Academy,East Dunbartonshire,Local Authority,Myrtle Avenue,Lenzie,,G66 4HR
G64 1HZ,G64 1HZ,NS 62324 70612,262324,670612,55.908854,-4.2040155,Bishopbriggs Academy,East Dunbartonshire,Local Authority,Wester Cleddens Road,Bishopbriggs,,G64 1HZ
G64 2EF,G64 2EF,NS 60188 70772,260188,670772,55.909675,-4.2382394,Turnbull High School,East Dunbartonshire,Local Authority,St Mary's Road,Bishopbriggs,GLASGOW,G64 2EF
EH21 7BA,EH21 7BA,NT 34406 72316,334406,672316,55.9394,-3.0516527,Musselburgh Grammar School,East Lothian,Local Authority,86 Inveresk Road,Musselburgh,EAST LOTHIAN,EH21 7BA
EH42 1NJ,EH42 1NJ,NT 66904 78661,366904,678661,55.999749,-2.5322209,Dunbar Grammar School,East Lothian,Local Authority,Summerfield Road,Dunbar,,EH42 1NJ
EH41 4DT,EH41 4DT,NT 50938 73639,350938,673639,55.953261,-2.7872704,Knox Academy,East Lothian,Local Authority,Pencaitland Road,Haddington,EAST LOTHIAN,EH41 4DT
EH39 4QS,EH39 4QS,NT 55080 84658,355080,684658,56.052661,-2.7227915,North Berwick High School,East Lothian,Local Authority,Grange Road,North Berwick,EAST LOTHIAN,EH39 4QS
EH32 9QJ,EH32 9QJ,NT 39479 74384,339479,674384,55.958644,-2.970919,Preston Lodge High School,East Lothian,Local Authority,Park View,Prestonpans,EAST LOTHIAN,EH32 9QJ
EH33 2EQ,EH33 2EQ,NT 40639 72659,340639,672659,55.943293,-2.9519622,Ross High School,East Lothian,Local Authority,Well Wynd,Tranent,EAST LOTHIAN,EH33 2EQ
G77 6NQ,G77 6NQ,NS 54124 57358,254124,657358,55.78745,-4.3279473,Eastwood High School,East Renfrewshire,Local Authority,Capelrig Road,Newton Mearns,GLASGOW,G77 6NQ
G46 7HG,G46 7HG,NS 55279 59163,255279,659163,55.804002,-4.3105044,Woodfarm High School,East Renfrewshire,Local Authority,Robslee Road,Thornliebank,GLASGOW,G46 7HG
G76 8RF,G76 8RF,NS 57252 56034,257252,656034,55.776498,-4.277414,Williamwood High School,East Renfrewshire,Local Authority,Eaglesham Road,Clarkston,GLASGOW,G76 8RF
G77 5GU,G77 5GU,NS 55380 55346,255380,655346,55.769765,-4.3068674,Mearns Castle High School,East Renfrewshire,Local Authority,51 Waterfoot Road,Newton Mearns,GLASGOW,G77 5GU
G46 6UX,G46 6UX,NS 55786 58617,255786,658617,55.799252,-4.3021335,St Ninian's High School - Giffnock,East Renfrewshire,Local Authority,13 Eastwood Park,Rouken Glen Road,GIFFNOCK,G46 6UX
G78 2SG,G78 2SG,NS 50440 57618,250440,657618,55.788659,-4.3867846,St Luke's High School,East Renfrewshire,Local Authority,25 Springfield Road,Barrhead,GLASGOW,G78 2SG
G78 2SJ,G78 2SJ,NS 50926 59078,250926,659078,55.801915,-4.3798409,Barrhead High School,East Renfrewshire,Local Authority,Aurs Road,Barrhead,GLASGOW,G78 2SJ
EH30 9JX,EH30 9JX,NT 13531 77993,313531,677993,55.987086,-3.387562,Queensferry Community High School,Edinburgh City,Local Authority,80 Station Road,South Queensferry,EDINBURGH,EH30 9JX
EH11 1FL,EH11 1FL,NT 24234 72663,324234,672663,55.94102,-3.2145526,Boroughmuir High School,Edinburgh City,Local Authority,111 Viewforth,Edinburgh,,EH11 1FL
EH4 1EG,EH4 1EG,NT 23881 74851,323881,674851,55.960618,-3.220821,Broughton High School,Edinburgh City,Local Authority,29 East Fettes Avenue,Edinburgh,,EH4 1EG
EH16 4DP,EH16 4DP,NT 29148 71371,329148,671371,55.930164,-3.1355603,Castlebrae Community High School,Edinburgh City,Local Authority,2a Greendykes Road,Edinburgh,,EH16 4DP
EH12 8NH,EH12 8NH,NT 18420 73375,318420,673375,55.946462,-3.3078212,Craigmount High School,Edinburgh City,Local Authority,59 Craigs Road,Edinburgh,,EH12 8NH
EH4 4NL,EH4 4NL,NT 21829 76334,321829,676334,55.973609,-3.2541113,Craigroyston Community High School,Edinburgh City,Local Authority,67 Pennywell Road,Edinburgh,,EH4 4NL
EH7 4BS,EH7 4BS,NT 25699 74835,325699,674835,55.960759,-3.1917038,Drummond Community High School,Edinburgh City,Local Authority,41 Bellevue Place,Edinburgh,,EH7 4BS
EH14 1DP,EH14 1DP,NT 22725 69775,322725,669775,55.914837,-3.2378772,Firrhill High School,Edinburgh City,Local Authority,9 Oxgangs Road North,Firrhill,EDINBURGH,EH14 1DP
EH12 9AE,EH12 9AE,NT 19517 71633,319517,671633,55.931,-3.2897411,Forrester High School,Edinburgh City,Local Authority,212 Broomhouse Road,Edinburgh,,EH12 9AE
EH16 6TZ,EH16 6TZ,NT 28027 68719,328027,668719,55.906174,-3.1527904,Gracemount High School,Edinburgh City,Local Authority,136 Lasswade Road,Edinburgh,,EH16 6TZ
EH15 3ST,EH15 3ST,NT 28619 72562,328619,672562,55.940784,-3.1443404,Holy Rood RC High School,Edinburgh City,Local Authority,55 Duddingston Road West,Edinburgh,,EH15 3ST
EH9 1DD,EH9 1DD,NT 25136 72164,325136,672164,55.936679,-3.199977,James Gillespie's High School,Edinburgh City,Local Authority,57 Lauderdale Street,Edinburgh,,EH9 1DD
EH6 8JQ,EH6 8JQ,NT 27271 75536,327271,675536,55.967297,-3.1667195,Leith Academy,Edinburgh City,Local Authority,20 Academy Park,Edinburgh,,EH6 8JQ
EH17 7PT,EH17 7PT,NT 28056 69601,328056,669601,55.914102,-3.1525617,Liberton High School,Edinburgh City,Local Authority,328 Gilmerton Road,Edinburgh,,EH17 7PT
EH15 3BY,EH15 3BY,NT 30565 72944,330565,672944,55.944501,-3.1132914,Portobello High School,Edinburgh City,Local Authority,1 Milton Road,Edinburgh,,EH15 3BY
EH4 6JP,EH4 6JP,NT 19923 75293,319923,675293,55.963944,-3.2843328,The Royal High School,Edinburgh City,Local Authority,East Barnton Avenue,Edinburgh,,EH4 6JP
EH14 2SU,EH14 2SU,NT 19294 70126,319294,670126,55.917426,-3.2928584,Wester Hailes High School,Edinburgh City,Local Authority,5 Murrayburn Drive,Edinburgh,,EH14 2SU
EH12 9AD,EH12 9AD,NT 19596 71859,319596,671859,55.933043,-3.2885444,St Augustine's High School,Edinburgh City,Local Authority,208 Broomhouse Road,Edinburgh,,EH12 9AD
EH3 9NH,EH3 9NH,NT 24696 72661,324696,672661,55.941074,-3.2071575,St Thomas Of Aquin's High School,Edinburgh City,Local Authority,2-20 Chalmers Street,Edinburgh,,EH3 9NH
EH6 4RT,EH6 4RT,NT 25514 76604,325514,676604,55.976621,-3.1951562,Trinity Academy,Edinburgh City,Local Authority,Craighall Avenue,Edinburgh,,EH6 4RT
EH11 2NJ,EH11 2NJ,NT 23233 72436,323233,672436,55.938822,-3.2305094,Tynecastle High School,Edinburgh City,Local Authority,17-19 McLeod Street,Edinburgh,,EH11 2NJ
EH14 5RD,EH14 5RD,NT 17638 67788,317638,667788,55.896144,-3.3186333,Currie Community High School,Edinburgh City,Local Authority,31 Dolphin Avenue,Currie,EDINBURGH,EH14 5RD
EH14 7AQ,EH14 7AQ,NT 16300 66656,316300,666656,55.885745,-3.3396724,Balerno Community High School,Edinburgh City,Local Authority,5 Bridge Road,Balerno,EDINBURGH,EH14 7AQ
FK6 6EE,FK6 6EE,NS 81825 82518,281825,682518,56.020954,-3.897487,Denny High School,Falkirk,Local Authority,Herbertshire Park,Denny,,FK6 6EE
FK1 5BZ,FK1 5BZ,NS 87410 79805,287410,679805,55.997937,-3.8067991,Falkirk High School,Falkirk,Local Authority,Westburn Avenue,Falkirk,,FK1 5BZ
FK1 1SY,FK1 1SY,NS 90104 79727,290104,679727,55.997861,-3.7635961,Graeme High School,Falkirk,Local Authority,Callendar Road,Falkirk,,FK1 1SY
FK2 7JT,FK2 7JT,NS 88317 80782,288317,680782,56.006922,-3.792671,St Mungo's RC High School,Falkirk,Local Authority,Merchison Avenue,Falkirk,,FK2 7JT
FK2 0DA,FK2 0DA,NS 91824 77804,291824,677804,55.980983,-3.7352588,Braes High School,Falkirk,Local Authority,Newlands Road,Reddingmuirhead,FALKIRK,FK2 0DA
FK3 0HW,FK3 0HW,NS 93193 80318,293193,680318,56.003867,-3.714329,Grangemouth High School,Falkirk,Local Authority,Tinto Drive,Grangemouth,,FK3 0HW
FK5 3BL,FK5 3BL,NS 87342 82482,287342,682482,56.021961,-3.8090123,Larbert High School,Falkirk,Local Authority,Carrongrange Avenue,Stenhousemuir,LARBERT,FK5 3BL
EH51 9AS,EH51 9AS,NT 00423 80796,300423,680796,56.009717,-3.5986191,Bo'ness Academy,Falkirk,Local Authority,Gauze Road,Bo'ness,,EH51 9AS
KY8 1HL,KY8 1HL,NT 35639 99464,335639,699464,56.183441,-3.0384538,Levenmouth Academy,Fife,Local Authority,Methilhaven Road,Buckhaven,FIFE,KY8 1HL
KY7 5JL,KY7 5JL,NO 28282 00976,328282,700976,56.19597,-3.1573592,Auchmuty High School,Fife,Local Authority,Dovecot Road,Glenrothes,,KY7 5JL
KY6 1JX,KY6 1JX,NO 25245 01145,325245,701145,56.19702,-3.2063376,Glenwood High School,Fife,Local Authority,South Parks Road,Glenrothes,,KY6 1JX
KY6 1HJ,KY6 1HJ,NO 26226 01292,326226,701292,56.198494,-3.1905727,Glenrothes High School,Fife,Local Authority,Napier Road,Glenrothes,,KY6 1HJ
KY2 5LY,KY2 5LY,NT 27177 90382,327177,690382,56.100641,-3.1722614,Balwearie High School,Fife,Local Authority,Balwearie Gardens,Kirkcaldy,,KY2 5LY
KY1 3LR,KY1 3LR,NT 27626 93893,327626,693893,56.132247,-3.1659988,Kirkcaldy High School,Fife,Local Authority,Dunnikier Way,Kirkcaldy,,KY1 3LR
KY1 3JL,KY1 3JL,NT 28725 93893,328725,693893,56.132413,-3.1483212,St Andrew's R C High School,Fife,Local Authority,Overton Road,Kirkcaldy,,KY1 3JL
KY1 3AL,KY1 3AL,NT 29962 93615,329962,693615,56.130099,-3.1283505,Viewforth High School,Fife,Local Authority,Windmill Community Campus,Windmill Road,KIRKCALDY FIFE,KY1 3AL
KY10 3HD,KY10 3HD,NO 56453 03803,356453,703803,56.224783,-2.7038861,Waid Academy,Fife,Local Authority,St Andrews Road,Anstruther,KY10 3GY,KY10 3HD
KY15 4HY,KY15 4HY,NO 36552 14446,336552,714446,56.318145,-3.027347,Bell Baxter High School,Fife,Local Authority,Carslogie Road,Cupar,,KY15 4HY
KY16 9EJ,KY16 9EJ,NO 50773 16473,350773,716473,56.338047,-2.7978472,Madras College,Fife,Local Authority,South Street,St Andrews,,KY16 9EJ
KY11 3BQ,KY11 3BQ,NT 09464 86464,309464,686464,56.06242,-3.4555881,Dunfermline High School,Fife,Local Authority,St Leonard's Place,Dunfermline,,KY11 3BQ
KY12 0PQ,KY12 0PQ,NT 08961 88603,308961,688603,56.081536,-3.4643919,Queen Anne High School,Fife,Local Authority,Pilmuir Street,Broomhead,DUNFERMLINE,KY12 0PQ
KY11 4ER,KY11 4ER,NT 11320 87242,311320,687242,56.069755,-3.4260494,Woodmill High School,Fife,Local Authority,Shields Road,Dunfermline,,KY11 4ER
KY11 4UN,KY11 4UN,NT 11789 87273,311789,687273,56.070121,-3.4185286,St Columba's R C High School,Fife,Local Authority,Woodmill Road,Dunfermline,,KY11 4UN
KY11 1PL,KY11 1PL,NT 13598 83267,313598,683267,56.034469,-3.3881867,Inverkeithing High School,Fife,Local Authority,Hillend Road,Inverkeithing,,KY11 1PL
KY4 9BH,KY4 9BH,NT 15404 91953,315404,691953,56.11281,-3.3619624,Beath High School,Fife,Local Authority,Foulford Road,Cowdenbeath,,KY4 9BH
KY5 8LZ,KY5 8LZ,NT 18321 94584,318321,694584,56.13695,-3.3158755,Lochgelly High School,Fife,Local Authority,Station Road,Lochgelly,,KY5 8LZ
G21 4JL,G21 4JL,NS 60899 68127,260899,668127,55.886134,-4.2255141,Springburn Academy,Glasgow City,Local Authority,151 Edgefauld Road,,GLASGOW,G21 4JL
G21 3EN,G21 3EN,NS 62431 67983,262431,667983,55.885281,-4.2009677,All Saints Secondary School,Glasgow City,Local Authority,299 Ryehill Road,,GLASGOW,G21 3EN
G41 5QE,G41 5QE,NS 56068 64040,256068,664040,55.848022,-4.3005119,Bellahouston Academy,Glasgow City,Local Authority,30 Gower Terrace,,GLASGOW,G41 5QE
G53 5HW,G53 5HW,NS 53644 61489,253644,661489,55.824391,-4.3378178,St Paul's High School,Glasgow City,Local Authority,36 Damshot Road,,GLASGOW,G53 5HW
G12 0JW,G12 0JW,NS 56029 68329,256029,668329,55.886516,-4.3034133,Cleveden Secondary School,Glasgow City,Local Authority,42 Cleveden Road,,GLASGOW,G12 0JW
G3 7HP,G3 7HP,NS 57411 65844,257411,665844,55.864617,-4.2800289,Glasgow Gaelic School,Glasgow City,Local Authority,147 Berkeley Street,,GLASGOW,G3 7HP
G32 9AA,G32 9AA,NS 64698 64111,264698,664111,55.851159,-4.1628194,Eastbank Academy,Glasgow City,Local Authority,26 Academy Street,,GLASGOW,G32 9AA
G51 4NB,G51 4NB,NS 54110 65238,254110,665238,55.858189,-4.3324014,Govan High School,Glasgow City,Local Authority,12 Ardnish Street,,GLASGOW,G51 4NB
G45 9JY,G45 9JY,NS 60358 58705,260358,658705,55.801386,-4.2293071,Castlemilk High School,Glasgow City,Local Authority,223 Castlemilk Drive,,GLASGOW,G45 9JY
G12 8LJ,G12 8LJ,NS 57116 66950,257116,666950,55.874459,-4.2853219,Hillhead High School,Glasgow City,Local Authority,22-44 Oakfield Avenue,,GLASGOW,G12 8LJ
G43 2XA,G43 2XA,NS 56119 60282,256119,660282,55.814299,-4.2977069,Hillpark Secondary School,Glasgow City,Local Authority,36 Cairngorm Road,,GLASGOW,G43 2XA
G42 8AU,G42 8AU,NS 59093 62203,259093,662203,55.832423,-4.251284,Holyrood Secondary School,Glasgow City,Local Authority,100 Dixon Road,,GLASGOW,G42 8AU
G12 9RQ,G12 9RQ,NS 55572 67291,255572,667291,55.87706,-4.3101594,Hyndland Secondary School,Glasgow City,Local Authority,74 Lauderdale Gardens,,GLASGOW,G12 9RQ
G44 5BL,G44 5BL,NS 59214 60087,259214,660087,55.813461,-4.2482573,King's Park Secondary School,Glasgow City,Local Authority,14 Fetlar Drive,Simshill,GLASGOW,G44 5BL
G13 2XD,G13 2XD,NS 53820 68934,253820,668934,55.891281,-4.3390253,Knightswood Secondary School,Glasgow City,Local Authority,60 Knightswood Road,,GLASGOW,G13 2XD
G34 0NZ,G34 0NZ,NS 68090 65913,268090,665913,55.868279,-4.109556,Lochend Community High School,Glasgow City,Local Authority,20 Cairnbrook Road,,GLASGOW,G34 0NZ
G52 3DF,G52 3DF,NS 53465 63711,253465,663711,55.844285,-4.3418717,Lourdes Secondary School,Glasgow City,Local Authority,47 Kirriemuir Avenue,,GLASGOW,G52 3DF
G12 9LN,G12 9LN,NS 56267 67408,256267,667408,55.878318,-4.2991225,Notre Dame High School,Glasgow City,Local Authority,160 Observatory Road,,GLASGOW,G12 9LN
G52 3PD,G52 3PD,NS 52159 63540,252159,663540,55.842351,-4.3626167,Rosshall Academy,Glasgow City,Local Authority,131 Crookston Road,,GLASGOW,G52 3PD
G41 3TR,G41 3TR,NS 57038 62173,257038,662173,55.831549,-4.2840491,Shawlands Academy,Glasgow City,Local Authority,31 Moss-side Road,,GLASGOW,G41 3TR
G33 2QU,G33 2QU,NS 63388 66557,263388,666557,55.87275,-4.1849606,Smithycroft Secondary School,Glasgow City,Local Authority,282 Smithycroft Road,,GLASGOW,G33 2QU
G32 6QE,G32 6QE,NS 64289 65078,264289,665078,55.859726,-4.1698313,St Andrew's Secondary School,Glasgow City,Local Authority,47 Torphin Crescent,,GLASGOW,G32 6QE
G45 9NJ,G45 9NJ,NS 59843 58893,259843,658893,55.802924,-4.2376129,St Margaret Mary's Secondary School,Glasgow City,Local Authority,9 Birgidale Road,,GLASGOW,G45 9NJ
G40 2RA,G40 2RA,NS 61088 64542,261088,664542,55.854002,-4.2206564,St Mungo's Academy,Glasgow City,Local Authority,235 Crownpoint Road,,GLASGOW,G40 2RA
G21 2NF,G21 2NF,NS 60483 66177,260483,666177,55.868506,-4.2311546,St Roch's Secondary School,Glasgow City,Local Authority,25 Rhymer Street,,GLASGOW,G21 2NF
G14 9PP,G14 9PP,NS 53992 67759,253992,667759,55.880785,-4.3356436,St Thomas Aquinas Secondary School,Glasgow City,Local Authority,112 Mitre Road,,GLASGOW,G14 9PP
G31 2QF,G31 2QF,NS 61397 65370,261397,665370,55.861525,-4.2161477,Whitehill Secondary School,Glasgow City,Local Authority,280 Onslow Drive,Dennistoun,GLASGOW,G31 2QF
G69 7NS,G69 7NS,NS 67247 63852,267247,663852,55.849542,-4.1220078,Bannerman High School,Glasgow City,Local Authority,119 Glasgow Road,,GLASGOW,G69 7NS
G23 5LY,G23 5LY,NS 56538 70271,256538,670271,55.904102,-4.2963128,John Paul Academy,Glasgow City,Local Authority,2 Arrochar Street,,GLASGOW,G23 5LY
G15 7SQ,G15 7SQ,NS 52155 71508,252155,671508,55.91388,-4.3670313,Drumchapel High School,Glasgow City,Local Authority,45 Cally Avenue,,GLASGOW,G15 7SQ
G13 1SP,G13 1SP,NS 54131 68225,254131,668225,55.885011,-4.3336748,Jordanhill School,Grant aided,Grant aided,45 Chamberlain Road,Jordanhill,GLASGOW,G13 1SP
KW14 7DS,KW14 7DS,ND 11108 67589,311108,967589,58.587164,-3.5307198,Thurso High School,Highland,Local Authority,Ormlie Road,Thurso,,KW14 7DS
KW1 5LT,KW1 5LT,ND 35886 50564,335886,950564,58.438658,-3.0998342,Wick High School,Highland,Local Authority,Newton Road,,WICK,KW1 5LT
IV25 3HR,IV25 3HR,NH 78793 89977,278793,889977,57.882731,-4.0456849,Dornoch Academy,Highland,Local Authority,Evelix Road,Dornoch,SUTHERLAND,IV25 3HR
KW10 6RF,KW10 6RF,NC 83379 00175,283379,900175,57.975496,-3.9734196,Golspie High School,Highland,Local Authority,Main Street,,GOLSPIE,KW10 6RF
KW14 7SS,KW14 7SS,NC 70702 62143,270702,962143,58.528141,-4.2221244,Farr High School,Highland,Local Authority,Bettyhill,By Thurso,,KW14 7SS
IV21 2BP,IV21 2BP,NG 80232 76943,180232,876943,57.728294,-5.6927454,Gairloch High School,Highland,Local Authority,Achtercairn,Gairloch,,IV21 2BP
IV15 9LT,IV15 9LT,NH 54745 59395,254745,859395,57.601111,-4.4323309,Dingwall Academy,Highland,Local Authority,Dingwall,,,IV15 9LT
IV10 8TW,IV10 8TW,NH 72737 56434,272737,856434,57.579967,-4.1299558,Fortrose Academy,Highland,Local Authority,Academy Street,Fortrose,ROSS-SHIRE,IV10 8TW
IV18 0LD,IV18 0LD,NH 70904 69074,270904,869074,57.692902,-4.167338,Invergordon Academy,Highland,Local Authority,Academy Road,Invergordon,,IV18 0LD
IV19 1PS,IV19 1PS,NH 77859 81698,277859,881698,57.808163,-4.0571809,Tain Royal Academy,Highland,Local Authority,Scotsburn Road,Tain,,IV19 1PS
IV26 2UN,IV26 2UN,NH 13126 94248,213126,894248,57.898386,-5.1548533,Ullapool High School,Highland,Local Authority,Mill Street,Ullapool,,IV26 2UN
IV17 0UY,IV17 0UY,NH 65884 69312,265884,869312,57.693568,-4.2516115,Alness Academy,Highland,Local Authority,Dalmore,,ALNESS,IV17 0UY
IV52 8TU,IV52 8TU,NG 79194 33092,179194,833092,57.334712,-5.6703692,Plockton High School,Highland,Local Authority,Plockton,Ross-shire,,IV52 8TU
IV51 9ET,IV51 9ET,NG 47658 43628,147658,843628,57.412749,-6.2036448,Portree High School,Highland,Local Authority,Viewfield Road,Portree,ISLE OF SKYE,IV51 9ET
PH36 4JA,PH36 4JA,NM 81496 62632,181496,762632,56.704116,-5.5710519,Ardnamurchan High School,Highland,Local Authority,Drimnatorran,Strontian,ACHARCLE,PH36 4JA
PH50 4QG,PH50 4QG,NN 18508 62021,218508,762021,56.714487,-4.9670112,Kinlochleven High School,Highland,Local Authority,Riverside Road,Kinlochleven,ARGYLL,PH50 4QG
PH41 4RG,PH41 4RG,NM 67479 96402,167479,796402,57.000049,-5.83032,Mallaig High School,Highland,Local Authority,Mallaig,,,PH41 4RG
PH33 7ND,PH33 7ND,NN 12357 75929,212357,775929,56.836819,-5.0775559,Lochaber High School,Highland,Local Authority,Camaghael,Fort William,,PH33 7ND
PH32 4DL,PH32 4DL,NH 37619 09053,237619,809053,57.143571,-4.6853333,Kilchuimen Academy,Highland,Local Authority,Station Road,Fort Augustus,INVERNESS-SHIRE,PH32 4DL
IV63 6XA,IV63 6XA,NH 50516 29147,250516,829147,57.328283,-4.484525,Glen Urquhart High School,Highland,Local Authority,Pitkerrald Road,Drumnadrochit,,IV63 6XA
IV3 5DZ,IV3 5DZ,NH 66004 45056,266004,845056,57.475895,-4.2361963,Inverness High School,Highland,Local Authority,Montague Row,Inverness,,IV3 5DZ
IV2 3QR,IV2 3QR,NH 67643 45478,267643,845478,57.480164,-4.2091161,Millburn Academy,Highland,Local Authority,Diriebught Road,Inverness,,IV2 3QR
IV2 6RE,IV2 6RE,NH 66485 42008,266485,842008,57.448678,-4.2265172,Inverness Royal Academy,Highland,Local Authority,Culduthel Road,Inverness,,IV2 6RE
IV3 8ET,IV3 8ET,NH 64806 44532,264806,844532,57.470836,-4.2558668,Charleston Academy,Highland,Local Authority,General Booth Road,Kinmylies,INVERNESS,IV3 8ET
IV2 7JZ,IV2 7JZ,NH 72394 46694,272394,846694,57.492441,-4.1305779,Culloden Academy,Highland,Local Authority,Keppoch Road,Culloden,INVERNESS,IV2 7JZ
PH21 1ES,PH21 1ES,NH 75781 00370,275781,800370,57.077533,-4.050842,Kingussie High School,Highland,Local Authority,Ruthven Road,Kingussie,,PH21 1ES
PH26 3HU,PH26 3HU,NJ 03845 28237,303845,828237,57.334483,-3.5988948,Grantown Grammar School,Highland,Local Authority,Cromdale Road,Grantown-on-Spey,,PH26 3HU
IV12 4RD,IV12 4RD,NH 87506 55694,287506,855694,57.577245,-3.8827838,Nairn Academy,Highland,Local Authority,Duncan Drive,Nairn,,IV12 4RD
IV27 4RG,IV27 4RG,NC 23049 56520,223049,956520,58.460957,-5.0349579,Kinlochbervie High School,Highland,Local Authority,Manse Road,Kinlochbervie,,IV27 4RG
PA16 0FB,PA16 0FB,NS 24550 75466,224550,675466,55.940125,-4.8107212,Inverclyde Academy,Inverclyde,Local Authority,Cumberland Road,Greenock,,PA16 0FB
PA19 1UX,PA19 1UX,NS 25202 76748,225202,676748,55.951867,-4.8011271,Clydeview Academy,Inverclyde,Local Authority,Burnside Road,Gourock,,PA19 1UX
PA16 9BJ,PA16 9BJ,NS 26722 75526,226722,675526,55.941451,-4.7760299,Notre Dame High School,Inverclyde,Local Authority,Dunlop Street,Greenock,,PA16 9BJ
PA19 1TN,PA19 1TN,NS 24022 76975,224022,676975,55.953474,-4.8201484,St Columba's High School,Inverclyde,Local Authority,Fletcher Avenue,Gourock,,PA19 1TN
PA14 6PP,PA14 6PP,NS 34238 72838,234238,672838,55.919978,-4.6541846,Port Glasgow High School,Inverclyde,Local Authority,Port Glasgow Comunity Campus,Kilmacolm Road,PORT GLASGOW,PA14 6PP
PA14 6PP,PA14 6PP,NS 34238 72838,234238,672838,55.919978,-4.6541846,St Stephen's High School,Inverclyde,Local Authority,Port Glasgow Community Campus,Kilmacolm Road,PORT GLASGOW,PA14 6PP
EH22 2PS,EH22 2PS,NT 34761 68109,334761,668109,55.901656,-3.0449531,Dalkeith High School,Midlothian,Local Authority,2 Cousland Road,Dalkeith,,EH22 2PS
EH22 4SX,EH22 4SX,NT 34483 65085,334483,665085,55.874452,-3.0486654,Newbattle High School,Midlothian,Local Authority,"Newbattle Community Campus, Newbattle Way",Easthouses,DALKEITH,EH22 4SX
EH22 2PS,EH22 2PS,NT 34761 68109,334761,668109,55.901656,-3.0449531,St David's RC High School,Midlothian,Local Authority,1 Cousland Road,Dalkeith,,EH22 2PS
EH19 2LA,EH19 2LA,NT 30170 65176,330170,665176,55.874663,-3.1176049,Lasswade High School Centre,Midlothian,Local Authority,Eskdale Drive,Bonnyrigg,,EH19 2LA
EH26 9EP,EH26 9EP,NT 23073 60330,323073,660330,55.83005,-3.2296263,Penicuik High School,Midlothian,Local Authority,39a Carlops Road,Penicuik,,EH26 9EP
EH26 0QF,EH26 0QF,NT 24214 61469,324214,661469,55.840463,-3.2117343,Beeslack Community High School,Midlothian,Local Authority,Edinburgh Road,Penicuik,,EH26 0QF
IV30 4ND,IV30 4ND,NJ 20866 63348,320866,863348,57.653059,-3.327649,Elgin Academy,Moray,Local Authority,Morriston Road,Elgin,MORAY,IV30 4ND
IV32 7DJ,IV32 7DJ,NJ 34361 58775,334361,858775,57.614161,-3.1003332,Milne's High School,Moray,Local Authority,West Street,Fochabers,MORAY,IV32 7DJ
IV36 1FG,IV36 1FG,NJ 03780 58210,303780,858210,57.603597,-3.6117823,Forres Academy,Moray,Local Authority,Burdsyard Road,Forres,MORAY,IV36 1FG
IV31 6JU,IV31 6JU,NJ 22883 70064,322883,870064,57.713718,-3.2960131,Lossiemouth High School,Moray,Local Authority,Coulardbank Road,Lossiemouth,MORAY,IV31 6JU
AB56 1QB,AB56 1QB,NJ 42173 65249,342173,865249,57.673375,-2.9711498,Buckie High School,Moray,Local Authority,West Cathcart Street,Buckie,MORAY,AB56 1QB
AB55 5GS,AB55 5GS,NJ 43488 50821,343488,850821,57.543963,-2.9457347,Keith Grammar School,Moray,Local Authority,School Road,Keith,MORAY,AB55 5GS
AB38 9QU,AB38 9QU,NJ 26939 43041,326939,843041,57.471722,-3.2198014,Speyside High School,Moray,Local Authority,Mary Avenue,Aberlour,MORAY,AB38 9QU
IV30 6UD,IV30 6UD,NJ 21120 61390,321120,861390,57.635521,-3.3227543,Elgin High School,Moray,Local Authority,Edgar Road,,ELGIN MORAY,IV30 6UD
HS1 2NF,HS1 2NF,NB 42607 32872,142607,932872,58.209219,-6.3835762,e-Sgoil nan Eilean Siar,Na h-Eileanan Siar,Local Authority,44 Francis Street,Stornoway,ISLE OF LEWIS,HS1 2NF
HS9 5XD,HS9 5XD,NL 66428 98300,66428,798300,56.955202,-7.4893732,Castlebay School,Na h-Eileanan Siar,Local Authority,Castlebay,Barra,,HS9 5XD
HS3 3BG,HS3 3BG,NB 14916 00416,114916,900416,57.901725,-6.8138344,Sir E Scott School,Na h-Eileanan Siar,Local Authority,Tarbert,Isle of Harris,WESTERN ISLES,HS3 3BG
HS1 2PZ,HS1 2PZ,NB 42727 32933,142727,932933,58.209835,-6.3816076,The Nicolson Institute,Na h-Eileanan Siar,Local Authority,Stornoway,Lewis,,HS1 2PZ
HS7 5PJ,HS7 5PJ,NF 78491 49936,78491,849936,57.425576,-7.3585547,Sgoil Lionacleit,Na h-Eileanan Siar,Local Authority,Liniclate,Benbecula,,HS7 5PJ
KA27 8NG,KA27 8NG,NS 02343 30755,202343,630755,55.530383,-5.1333756,Arran High School,North Ayrshire,Local Authority,Lamlash,,ISLE OF ARRAN,KA27 8NG
KA21 5NT,KA21 5NT,NS 24653 42098,224653,642098,55.640709,-4.7875881,St Matthew's Academy,North Ayrshire,Local Authority,Jack's Road,,SALTCOATS,KA21 5NT
KA22 8AR,KA22 8AR,NS 23873 42547,223873,642547,55.644457,-4.8002524,Ardrossan Academy,North Ayrshire,Local Authority,Sorbie Road,,ARDROSSAN,KA22 8AR
KA11 4HL,KA11 4HL,NS 34273 38103,234273,638103,55.608227,-4.6325195,Greenwood Academy,North Ayrshire,Local Authority,Dreghorn,,IRVINE,KA11 4HL
KA12 8SJ,KA12 8SJ,NS 31645 40418,231645,640418,55.628103,-4.6756049,Irvine Royal Academy,North Ayrshire,Local Authority,Kilwinning Road,,IRVINE,KA12 8SJ
KA14 3BF,KA14 3BF,NS 32424 52815,232424,652815,55.73964,-4.6708249,Garnock Community Campus,North Ayrshire,Local Authority,Beith Road,,GLENGARNOCK,KA14 3BF
KA30 9DR,KA30 9DR,NS 21200 60098,221200,660098,55.800983,-4.8541427,Largs Academy,North Ayrshire,Local Authority,Alexander Avenue,,LARGS,KA30 9DR
KA20 3JW,KA20 3JW,NS 25856 41784,225856,641784,55.638324,-4.7683003,Auchenharvie Academy,North Ayrshire,Local Authority,Saltcoats Road,,STEVENSTON,KA20 3JW
KA13 7HD,KA13 7HD,NS 29959 43522,229959,643522,55.655375,-4.7042712,Kilwinning Academy,North Ayrshire,Local Authority,Dalry Road,,KILWINNING,KA13 7HD
G67 2UF,G67 2UF,NS 76967 74491,276967,674491,55.947654,-3.9717011,Cumbernauld Academy,North Lanarkshire,Local Authority,South Kildrum Ring Road,Cumbernauld,,G67 2UF
G69 9DL,G69 9DL,NS 68546 69911,268546,669911,55.904301,-4.1042167,Chryston High School,North Lanarkshire,Local Authority,Lindsaybeg Road,Chryston,GLASGOW,G69 9DL
G67 4AQ,G67 4AQ,NS 74709 73322,274709,673322,55.936573,-4.0072905,Greenfaulds High School,North Lanarkshire,Local Authority,Athelstane Drive,Cumbernauld,,G67 4AQ
G67 1LA,G67 1LA,NS 75013 74082,275013,674082,55.943477,-4.0027795,Our Lady's High School - Cumbernauld,North Lanarkshire,Local Authority,Dowanfield Road,Cumbernauld,,G67 1LA
G65 9NF,G65 9NF,NS 71189 78268,271189,678268,55.980052,-4.0659649,Kilsyth Academy,North Lanarkshire,Local Authority,Balmalloch,Kilsyth,GLASGOW,G65 9NF
G68 9AG,G68 9AG,NS 73177 73974,273177,673974,55.942026,-4.0321048,St Maurice's High School,North Lanarkshire,Local Authority,Westfield,Cumbernauld,,G68 9AG
ML5 5EA,ML5 5EA,NS 72941 63581,272941,663581,55.848643,-4.0309974,St Andrew's High School,North Lanarkshire,Local Authority,9 Old Monkland Road,Coatbridge,,ML5 5EA
ML6 6NX,ML6 6NX,NS 76113 66478,276113,666478,55.875482,-3.9816922,Airdrie Academy,North Lanarkshire,Local Authority,South Commonhead Avenue,Airdrie,,ML6 6NX
ML6 8PG,ML6 8PG,NS 78588 65333,278588,665333,55.865831,-3.9416461,Caldervale High School,North Lanarkshire,Local Authority,Towers Road,Airdrie,,ML6 8PG
ML6 6EU,ML6 6EU,NS 76816 66098,276816,666098,55.87225,-3.9702906,St Margaret's High School,North Lanarkshire,Local Authority,Waverley Drive,Airdrie,,ML6 6EU
ML5 3NP,ML5 3NP,NS 73935 65084,273935,665084,55.8624,-4.015831,Coatbridge High School,North Lanarkshire,Local Authority,17 Park Street,Coatbridge,,ML5 3NP
ML5 2HT,ML5 2HT,NS 71864 65969,271864,665969,55.8698,-4.0493162,St Ambrose High School,North Lanarkshire,Local Authority,65 Townhead Road,Coatbridge,,ML5 2HT
ML4 1AR,ML4 1AR,NS 73655 60336,273655,660336,55.819693,-4.0180909,Bellshill Academy,North Lanarkshire,Local Authority,321 Main Street,Bellshill,,ML4 1AR
ML1 3XF,ML1 3XF,NS 74827 58249,274827,658249,55.801258,-3.9984372,Braidhurst High School,North Lanarkshire,Local Authority,Dalriada Crescent,Motherwell,,ML1 3XF
ML1 3AG,ML1 3AG,NS 74689 56627,274689,656627,55.786657,-3.9998904,Dalziel High School,North Lanarkshire,Local Authority,Crawford Street,Motherwell,,ML1 3AG
ML1 2DG,ML1 2DG,NS 76140 55515,276140,655515,55.777046,-3.9762613,Our Lady's High School - Motherwell,North Lanarkshire,Local Authority,Dalzell Drive,Motherwell,,ML1 2DG
ML7 4DH,ML7 4DH,NS 87447 60143,287447,660143,55.821373,-3.7980139,Calderhead High School,North Lanarkshire,Local Authority,Dyfrig Street,Shotts,,ML7 4DH
ML2 7EW,ML2 7EW,NS 79824 55743,279824,655743,55.780024,-3.9176656,St Aidan's High School,North Lanarkshire,Local Authority,Waverley Drive,Wishaw,,ML2 7EW
ML2 8NA,ML2 8NA,NS 80587 55888,280587,655888,55.781515,-3.9055714,Coltness High School,North Lanarkshire,Local Authority,Mossland Drive,Coltness,WISHAW,ML2 8NA
ML2 0LS,ML2 0LS,NS 79659 53237,279659,653237,55.757479,-3.9191883,Clyde Valley High School,North Lanarkshire,Local Authority,Castlehill Road,Wishaw,,ML2 0LS
ML4 3DW,ML4 3DW,NS 72549 60017,272549,660017,55.816538,-4.0355811,Cardinal Newman High School,North Lanarkshire,Local Authority,Main Street,Bellshill,,ML4 3DW
ML1 4JP,ML1 4JP,NS 76453 59224,276453,659224,55.810432,-3.9729582,Taylor High School,North Lanarkshire,Local Authority,Carfin Street,New Stevenston,MOTHERWELL,ML1 4JP
ML1 5AU,ML1 5AU,NS 77299 59251,277299,659251,55.81089,-3.95948,Brannock High School,North Lanarkshire,Local Authority,Loanhead Road,Newarthill,MOTHERWELL,ML1 5AU
KW15 1QN,KW15 1QN,HY 45680 10695,345680,1010695,58.979939,-2.9466575,Kirkwall Grammar School,Orkney Islands,Local Authority,Kirkwall,Orkney,,KW15 1QN
KW17 2DH,KW17 2DH,HY 43787 48723,343787,1048723,59.321141,-2.9893905,Westray Junior High School,Orkney Islands,Local Authority,Westray,Orkney,,KW17 2DH
KW17 2AY,KW17 2AY,HY 65913 40993,365913,1040993,59.254102,-2.5994579,Sanday Community School,Orkney Islands,Local Authority,Sanday,Orkney,,KW17 2AY
KW16 3JS,KW16 3JS,HY 25931 09896,325931,1009896,58.969798,-3.2898454,Stromness Academy,Orkney Islands,Local Authority,Stromness,Orkney,,KW16 3JS
KW17 2AE,KW17 2AE,HY 65171 26065,365171,1026065,59.119994,-2.6100731,Stronsay Junior High School,Orkney Islands,Local Authority,Stronsay,Orkney,,KW17 2AE
PH1 0AU,PH1 0AU,NO 08497 26545,308497,726545,56.422216,-3.484983,Bertha Park High School,Perth & Kinross,Local Authority,Adamson Avenue,,PERTH,PH1 0AU
PH15 2DU,PH15 2DU,NN 85381 48832,285381,748832,56.617285,-3.8693528,Breadalbane Academy,Perth & Kinross,Local Authority,Breadalbane Community Campus,Crieff Road,ABERFELDY,PH15 2DU
PH3 1BL,PH3 1BL,NN 94438 12900,294438,712900,56.296746,-3.7073036,The Community School of Auchterarder,Perth & Kinross,Local Authority,New School Lane,Auchterarder,PERTHSHIRE,PH3 1BL
PH10 6PW,PH10 6PW,NO 17641 44431,317641,744431,56.584545,-3.342461,Blairgowrie High School,Perth & Kinross,Local Authority,Beeches Road,Blairgowrie,,PH10 6PW
PH1 5BF,PH1 5BF,NO 11374 25138,311374,725138,56.410129,-3.4378831,St John's RC Academy,Perth & Kinross,Local Authority,North Inch Community Campus,Gowans Terrace,PERTH,PH1 5BF
PH7 3JN,PH7 3JN,NN 86671 21254,286671,721254,56.369968,-3.8363359,Crieff High School,Perth & Kinross,Local Authority,Strathearn Community Campus,Pittenzie Road,CRIEFF,PH7 3JN
KY13 8FQ,KY13 8FQ,NO 11719 03587,311719,703587,56.216635,-3.4250655,Kinross High School,Perth & Kinross,Local Authority,Loch Leven Community Campus,The Muirs,KINROSS,KY13 8FQ
PH1 1NJ,PH1 1NJ,NO 10026 23057,310026,723057,56.391184,-3.4590057,Perth Academy,Perth & Kinross,Local Authority,Murray Place,Perth,,PH1 1NJ
PH1 5AZ,PH1 5AZ,NO 11044 25070,311044,725070,56.409456,-3.4432061,Perth Grammar School,Perth & Kinross,Local Authority,Gowans Terrace,Perth,,PH1 5AZ
PH1 1HB,PH1 1HB,NO 09460 23209,309460,723209,56.392441,-3.468223,Perth High School,Perth & Kinross,Local Authority,Oakbank Road,Perth,,PH1 1HB
PH16 5ET,PH16 5ET,NN 94560 58563,294560,758563,56.706823,-3.7238442,Pitlochry High School,Perth & Kinross,Local Authority,East Moulin Road,Pitlochry,,PH16 5ET
PA5 8EX,PA5 8EX,NS 42794 64188,242794,664188,55.845206,-4.5123959,St Benedict's High School,Renfrewshire,Local Authority,Bridge of Weir Road,,LINWOOD,PA5 8EX
PA8 6EY,PA8 6EY,NS 46770 70409,246770,670409,55.90233,-4.4524787,Park Mains High School,Renfrewshire,Local Authority,Barrhill Road,,ERSKINE,PA8 6EY
PA5 0JN,PA5 0JN,NS 41853 61727,241853,661727,55.822808,-4.5259755,Johnstone High School,Renfrewshire,Local Authority,Beith Road,,JOHNSTONE,PA5 0JN
PA3 3NB,PA3 3NB,NS 42942 64641,242942,664641,55.849321,-4.5102969,Linwood High School,Renfrewshire,Local Authority,Stirling Drive,,LINWOOD,PA3 3NB
PA1 3RP,PA1 3RP,NS 49122 64094,249122,664094,55.846384,-4.4113784,Paisley Grammar School,Renfrewshire,Local Authority,Glasgow Road,,PAISLEY,PA1 3RP
PA2 0AG,PA2 0AG,NS 46090 61939,246090,661939,55.826081,-4.4585338,Gleniffer High School,Renfrewshire,Local Authority,Amochrie Road,,PAISLEY,PA2 0AG
PA1 2HL,PA1 2HL,NS 47727 63313,247727,663313,55.838935,-4.4331984,Castlehead High School,Renfrewshire,Local Authority,Camphill,off Canal Street,PAISLEY,PA1 2HL
PA2 7LG,PA2 7LG,NS 50257 62307,250257,662307,55.830696,-4.3922823,St Andrew's Academy,Renfrewshire,Local Authority,Barrhead Road,,PAISLEY,PA2 7LG
PA4 0AN,PA4 0AN,NS 50850 66844,250850,666844,55.871608,-4.385319,Renfrew High School,Renfrewshire,Local Authority,Haining Road,,RENFREW,PA4 0AN
PA4 8TP,PA4 8TP,NS 50765 67487,250765,667487,55.877354,-4.3870304,Trinity High School,Renfrewshire,Local Authority,Glebe Street,,RENFREW,PA4 8TP
PA6 7EB,PA6 7EB,NS 40421 66609,240421,666609,55.866158,-4.5516792,Gryffe High School,Renfrewshire,Local Authority,Old Bridge of Weir Road,,HOUSTON,PA6 7EB
EH45 9HB,EH45 9HB,NT 25131 39826,325131,639826,55.646185,-3.191156,Peebles High School,Scottish Borders,Local Authority,Springwood Road,Peebles,PEEBLESSHIRE,EH45 9HB
TD4 6HF,TD4 6HF,postcode not found,,,55.6405103,-2.662692217,Earlston High School,Scottish Borders,Local Authority,Earlston,Berwickshire,,TD4 6HF
TD1 3HU,TD1 3HU,NT 48898 35766,348898,635766,55.612794,-2.8128191,Galashiels Academy,Scottish Borders,Local Authority,Elm Row,Galashiels,SELKIRKSHIRE,TD1 3HU
TD7 4EW,TD7 4EW,NT 47484 28693,347484,628693,55.549096,-2.8339156,Selkirk High School,Scottish Borders,Local Authority,Hillside Terrace,Selkirk,,TD7 4EW
TD9 0EG,TD9 0EG,NT 49826 14470,349826,614470,55.421556,-2.7942244,Hawick High School,Scottish Borders,Local Authority,Buccleuch Road,Hawick,ROXBURGHSHIRE,TD9 0EG
TD8 6HH,TD8 6HH,NT 65424 20783,365424,620783,55.479631,-2.5486022,Jedburgh Grammar School,Scottish Borders,Local Authority,JEDBURGH GRAMMAR CAMPUS,PRIORS ROAD,JEDBURGH,TD8 6HH
TD5 7NL,TD5 7NL,NT 72567 35049,372567,635049,55.608266,-2.4370131,Kelso High School,Scottish Borders,Local Authority,Angraflat Road,Kelso,ROXBURGHSHIRE,TD5 7NL
TD11 3QG,TD11 3QG,NT 77968 53592,377968,653592,55.77515,-2.3527815,Berwickshire High School,Scottish Borders,Local Authority,Duns,Berwickshire,,TD11 3QG
TD14 5LZ,TD14 5LZ,NT 94619 63259,394619,663259,55.862483,-2.0875434,Eyemouth High School,Scottish Borders,Local Authority,Gunsgreenhill,Eyemouth,BERWICKSHIRE,TD14 5LZ
ZE2 9NB,ZE2 9NB,HU 34329 55640,434329,1155640,60.283494,-1.3810459,Aith Junior High School,Shetland Islands,Local Authority,Aith,Shetland,,ZE2 9NB
ZE2 9DY,ZE2 9DY,HP 61081 08926,461081,1208926,60.758688,-0.8809983,Baltasound Junior High School,Shetland Islands,Local Authority,Baltasound,Unst,SHETLAND,ZE2 9DY
ZE2 9QG,ZE2 9QG,HU 35408 68046,435408,1168046,60.394783,-1.3593571,Brae High School,Shetland Islands,Local Authority,Brae,Shetland,,ZE2 9QG
ZE1 0GR,ZE1 0GR,HU 46463 41395,446463,1141395,60.154403,-1.1649092,Anderson High School,Shetland Islands,Local Authority,North Loch Drive,Lerwick,SHETLAND,ZE1 0GR
ZE2 9BN,ZE2 9BN,HU 51118 91244,451118,1191244,60.601359,-1.068388,Mid Yell Junior High School,Shetland Islands,Local Authority,Mid Yell,Shetland,,ZE2 9BN
ZE2 9HH,ZE2 9HH,HU 42132 24124,442132,1124124,59.999811,-1.2464559,Sandwick Junior High School,Shetland Islands,Local Authority,Sandwick,Shetland,,ZE2 9HH
ZE2 9AQ,ZE2 9AQ,HU 54771 62355,454771,1162355,60.341541,-1.0096249,Whalsay School,Shetland Islands,Local Authority,Symbister,Whalsay,SHETLAND,ZE2 9AQ
KA8 0SZ,KA8 0SZ,NS 35075 21504,235075,621504,55.459507,-4.6099097,Ayr Academy,South Ayrshire,Local Authority,University Avenue,Ayr,,KA8 0SZ
KA7 2PG,KA7 2PG,postcode not found,,,55.44490068,-4.619003663,Belmont Academy,South Ayrshire,Local Authority,Nursery Road,Ayr,,KA7 2PG
KA7 3TL,KA7 3TL,NS 35472 19446,235472,619446,55.441168,-4.6024211,Queen Margaret Academy,South Ayrshire,Local Authority,33A Dalmellington Road,Ayr,,KA7 3TL
KA26 9DW,KA26 9DW,NX 19186 97621,219186,597621,55.239556,-4.8454436,Girvan Academy,South Ayrshire,Local Authority,62 The Avenue,Girvan,,KA26 9DW
KA19 8BP,KA19 8BP,NS 29286 09632,229286,609632,55.350963,-4.6940888,Carrick Academy,South Ayrshire,Local Authority,72/74 Kirkoswald Road,Maybole,,KA19 8BP
KA9 2LB,KA9 2LB,NS 35726 26323,235726,626323,55.502982,-4.6024771,Prestwick Academy,South Ayrshire,Local Authority,15 Newdykes Road,Prestwick,,KA9 2LB
KA10 7AB,KA10 7AB,NS 33214 31543,233214,631543,55.548985,-4.6453465,Marr College,South Ayrshire,Local Authority,Dundonald Road,Troon,,KA10 7AB
KA7 3LR,KA7 3LR,NS 35733 21252,235733,621252,55.457466,-4.5993663,Kyle Academy,South Ayrshire,Local Authority,7 Overmills Road,Ayr,,KA7 3LR
G73 3LW,G73 3LW,NS 63131 60878,263131,660878,55.821689,-4.1861994,Trinity High School,South Lanarkshire,Local Authority,Glenside Drive,Rutherglen,,G73 3LW
G72 8ES,G72 8ES,NS 63409 59874,263409,659874,55.812754,-4.1812611,Cathkin High School,South Lanarkshire,Local Authority,Langlea Road,Cambuslang,,G72 8ES
G73 3BP,G73 3BP,NS 61692 61311,261692,661311,55.825167,-4.2093692,Stonelaw High School,South Lanarkshire,Local Authority,140 Calderwood Road,Rutherglen,,G73 3BP
G74 1NL,G74 1NL,NS 64153 54203,264153,654203,55.762046,-4.1665688,St Andrew's and St Bride's High School,South Lanarkshire,Local Authority,Platthorn Drive,East Kilbride,,G74 1NL
ML3 6PE,ML3 6PE,NS 71828 55260,271828,655260,55.773632,-4.044839,Hamilton Grammar School,South Lanarkshire,Local Authority,Auchincampbell Road,Hamilton,,ML3 6PE
ML3 0BN,ML3 0BN,NS 71344 56316,271344,656316,55.782986,-4.0530479,Holy Cross High School,South Lanarkshire,Local Authority,51 New Park Street,Hamilton,,ML3 0BN
ML3 9LA,ML3 9LA,NS 69824 55941,269824,655941,55.779212,-4.077088,St John Ogilvie High School,South Lanarkshire,Local Authority,Farm Road,Burnbank,HAMILTON,ML3 9LA
ML9 1QN,ML9 1QN,NS 76162 50707,276162,650707,55.733877,-3.9737283,Larkhall Academy,South Lanarkshire,Local Authority,Broomhill Road,Larkhall,,ML9 1QN
G71 7BT,G71 7BT,NS 69396 60844,269396,660844,55.82312,-4.0862608,Uddingston Grammar School,South Lanarkshire,Local Authority,Old Glasgow Road,Uddingston,,G71 7BT
G74 2LP,G74 2LP,NS 65152 53854,265152,653854,55.759192,-4.1504878,Calderglen High School,South Lanarkshire,Local Authority,High Common Road,St Leonard's,EAST KILBRIDE,G74 2LP
G72 0AX,G72 0AX,NS 68910 57440,268910,657440,55.792424,-4.0923715,Calderside Academy,South Lanarkshire,Local Authority,Calder Street,Blanytre,,G72 0AX
G75 8ZT,G75 8ZT,NS 61697 53959,261697,653959,55.75916,-4.2055542,Duncanrig Secondary School,South Lanarkshire,Local Authority,Winnipeg Drive,East Kilbride,,G75 8ZT
ML10 6DP,ML10 6DP,NS 69866 44391,269866,644391,55.675513,-4.0709194,Strathaven Academy,South Lanarkshire,Local Authority,Bowling Green Road,Strathaven,,ML10 6DP
ML12 6AG,ML12 6AG,NT 04255 37432,304255,637432,55.621014,-3.5219037,Biggar High School,South Lanarkshire,Local Authority,Market Road,Biggar,,ML12 6AG
ML8 4EA,ML8 4EA,NS 85469 50572,285469,650572,55.734956,-3.8255425,Carluke High School,South Lanarkshire,Local Authority,Carnwath Road,Carluke,,ML8 4EA
ML11 9AJ,ML11 9AJ,NS 88466 43242,288466,643242,55.669827,-3.7748524,Lanark Grammar School,South Lanarkshire,Local Authority,Kirklands Road,Lanark,,ML11 9AJ
ML11 0FS,ML11 0FS,NS 81307 40493,281307,640493,55.643442,-3.8874181,Lesmahagow High School,South Lanarkshire,Local Authority,Strathaven Road,Lesmahagow,,ML11 0FS
FK17 8JH,FK17 8JH,NN 62928 07344,262928,707344,56.238803,-4.2131908,McLaren High School,Stirling,Local Authority,Mollands Road,Callander,,FK17 8JH
FK15 9EW,FK15 9EW,NN 77180 00664,277180,700664,56.182722,-3.9803093,Dunblane High School,Stirling,Local Authority,Old Doune Road,Dunblane,,FK15 9EW
G63 0PW,G63 0PW,NS 55036 88973,255036,688973,56.071545,-4.3303988,Balfron High School,Stirling,Local Authority,Roman Road,Balfron,,G63 0PW
FK7 0HQ,FK7 0HQ,NS 80498 90928,280498,690928,56.096143,-3.9225183,Bannockburn High School,Stirling,Local Authority,Bannockburn Road,Bannockburn,STIRLING,FK7 0HQ
FK8 2PA,FK8 2PA,NS 79081 91969,279081,691969,56.105134,-3.9457528,Stirling High School,Stirling,Local Authority,Torbrex Farm Road,,STIRLING,FK8 2PA
FK7 7WS,FK7 7WS,NS 81363 93716,281363,693716,56.121394,-3.9098625,St Modan's High School,Stirling,Local Authority,Royal Stuart Way,,STIRLING,FK7 7WS
FK9 5HW,FK9 5HW,NS 80271 95833,280271,695833,56.14013,-3.9283677,Wallace High School,Stirling,Local Authority,Airthrey Road,,STIRLING,FK9 5HW
G81 2DB,G81 2DB,NS 50308 71466,250308,671466,55.912932,-4.3965304,St Peter the Apostle High School,West Dunbartonshire,Local Authority,Kirkoswald Drive,,CLYDEBANK,G81 2DB
G82 2AJ,G82 2AJ,NS 40467 75547,240467,675547,55.9464,-4.5562202,Dumbarton Academy,West Dunbartonshire,Local Authority,Crosslet Road,,DUMBARTON,G82 2AJ
G82 3DR,G82 3DR,NS 40956 76791,240956,676791,55.957728,-4.5491325,Our Lady & St Patrick's High School,West Dunbartonshire,Local Authority,Howatshaws Road,Bellsmyre,DUMBARTON,G82 3DR
G83 0BH,G83 0BH,NS 38824 79231,238824,679231,55.978917,-4.5847045,Vale Of Leven Academy,West Dunbartonshire,Local Authority,Main Street,,ALEXANDRIA,G83 0BH
G81 3EJ,G81 3EJ,NS 49276 71387,249276,671387,55.911901,-4.4129811,Clydebank High School,West Dunbartonshire,Local Authority,Janetta Street,,CLYDEBANK,G81 3EJ
EH55 8BF,EH55 8BF,NT 02450 63357,302450,663357,55.853507,-3.559816,West Calder High School,West Lothian,Local Authority,Limefield Lane,Polbeth,WEST CALDER,EH55 8BF
EH54 8PS,EH54 8PS,NT 03209 69166,303209,669166,55.905834,-3.5497747,Deans Community High School,West Lothian,Local Authority,Eastwood Park,Deans,LIVINGSTON,EH54 8PS
EH54 6HW,EH54 6HW,NT 05070 68474,305070,668474,55.89999,-3.5197762,Inveralmond Community High School,West Lothian,Local Authority,Willowbank,Ladywell,LIVINGSTON,EH54 6HW
EH48 3LY,EH48 3LY,NS 92890 68185,292890,668185,55.894837,-3.7143622,Armadale Academy,West Lothian,Local Authority,West Main Street,Armadale,WEST LOTHIAN,EH48 3LY
EH48 1LF,EH48 1LF,NS 99229 68430,299229,668430,55.898406,-3.6131337,Bathgate Academy,West Lothian,Local Authority,Edinburgh Road,Bathgate,WEST LOTHIAN,EH48 1LF
EH47 7LX,EH47 7LX,NS 97618 65345,297618,665345,55.870359,-3.637718,St Kentigern's Academy,West Lothian,Local Authority,West Main Street,Blackburn,WEST LOTHIAN,EH47 7LX
EH52 6AG,EH52 6AG,NT 07159 72545,307159,672545,55.936962,-3.4877802,Broxburn Academy,West Lothian,Local Authority,Cardross Road,Broxburn,WEST LOTHIAN,EH52 6AG
EH49 6EH,EH49 6EH,NS 99453 76577,299453,676577,55.971623,-3.6125907,Linlithgow Academy,West Lothian,Local Authority,Braehead Road,Linlithgow,WEST LOTHIAN,EH49 6EH
EH47 0HL,EH47 0HL,NS 94989 65152,294989,665152,55.86806,-3.6796366,Whitburn Academy,West Lothian,Local Authority,Shanks Road,Whitburn,WEST LOTHIAN,EH47 0HL
EH54 6NE,EH54 6NE,NT 05308 66349,305308,666349,55.88095,-3.5152273,The James Young High School,West Lothian,Local Authority,Quentin Rise,Dedridge West,LIVINGSTON,EH54 6NE
EH54 6AT,EH54 6AT,NT 04897 67298,304897,667298,55.889393,-3.5221282,St Margaret's Academy,West Lothian,Local Authority,Howden South Road,Howden,LIVINGSTON,EH54 6AT